{
  "type": "FeatureCollection",
  "features": [
    {
      "type": "Feature",
      "geometry": {
        "type": "LineString",
        "coordinates": [
          [
            113.936186,
            22.521753
          ],
          [
            113.936341,
            22.521714
          ],
          [
            113.938479,
            22.521177
          ],
          [
            113.937846,
            22.518971
          ],
          [
            113.937422,
            22.517478
          ],
          [
            113.936504,
            22.517697
          ],
          [
            113.935625,
            22.517912
          ],
          [
            113.935142,
            22.51803
          ],
          [
            113.934671,
            22.518145
          ],
          [
            113.934468,
            22.518194
          ],
          [
            113.933981,
            22.5183
          ],
          [
            113.933001,
            22.518523
          ],
          [
            113.93167,
            22.518828
          ],
          [
            113.932202,
            22.520731
          ],
          [
            113.932217,
            22.520785
          ],
          [
            113.932136,
            22.520794
          ],
          [
            113.932123,
            22.52074
          ],
          [
            113.931956,
            22.520149
          ]
        ]
      },
      "properties": {
        "route_id": "vehicle_route_to_sheltered",
        "profile": "driving-car",
        "label": "Vehicle → sheltered pickup",
        "from_lon": 113.9362,
        "from_lat": 22.5218,
        "to_lon": 113.93187180000001,
        "to_lat": 22.5201693,
        "distance_m": 1586.3,
        "duration_s": 128.3,
        "point_count": 18,
        "generated_by": "openrouteservice",
        "generated_at": "2026-05-17T08:09:44.602Z"
      }
    }
  ]
}
