{"type":"FeatureCollection","features":[{"type":"Feature","geometry":{"type":"LineString","coordinates":[[113.9297737,22.5220674],[113.9287235,22.5221771],[113.9287481,22.5221997],[113.9287686,22.5222257],[113.9287858,22.5222574],[113.9287967,22.5222914],[113.9288011,22.5223313],[113.928797,22.5223713],[113.9287861,22.5224059],[113.9287673,22.5224403],[113.9287437,22.5224689],[113.9289507,22.5224539],[113.9289846,22.5223928],[113.9292032,22.5223921],[113.9292187,22.5223634],[113.9296056,22.5223711],[113.9298115,22.522348],[113.9297737,22.5220674]]},"properties":{"type":"water"}},{"type":"Feature","geometry":{"type":"LineString","coordinates":[[113.9307305,22.5193065],[113.9306474,22.5193089],[113.9305278,22.519325],[113.9303953,22.519361],[113.9302048,22.5194229],[113.9301577,22.5194385],[113.9299082,22.5195208],[113.9298079,22.5195468],[113.9297167,22.5195567],[113.9297231,22.5196868],[113.9299587,22.5196715],[113.9302044,22.5196146],[113.9302091,22.5196323],[113.9302216,22.5196794],[113.9303204,22.5196559],[113.9304735,22.5196193],[113.930629,22.5195823],[113.9307618,22.5195506],[113.9307536,22.5194968],[113.9307305,22.5193065]]},"properties":{"type":"water"}},{"type":"Feature","geometry":{"type":"LineString","coordinates":[[113.9300626,22.5222844],[113.9310065,22.5221745],[113.9310034,22.5221518],[113.9311102,22.5221394],[113.931086,22.5219623],[113.9310436,22.5219444],[113.9300323,22.5220621],[113.9300626,22.5222844]]},"properties":{"type":"water"}},{"type":"Feature","geometry":{"type":"LineString","coordinates":[[113.9323188,22.5218011],[113.9321532,22.5218225],[113.9315082,22.5218981],[113.9314895,22.5219229],[113.9313409,22.5219323],[113.9313715,22.5221655],[113.9315297,22.5221358],[113.9315458,22.5221061],[113.9318113,22.5220937],[113.9318382,22.5221259],[113.9322037,22.5220673],[113.9322191,22.5220888],[113.9323819,22.5220629],[113.9323188,22.5218011]]},"properties":{"type":"water"}},{"type":"Feature","geometry":{"type":"LineString","coordinates":[[113.9329728,22.5188094],[113.9329432,22.5188134],[113.9328038,22.5188332],[113.9326306,22.5188419],[113.9324268,22.5188617],[113.9322985,22.5188798],[113.9321746,22.5189101],[113.9320539,22.5189559],[113.9319623,22.5190018],[113.9318574,22.5190591],[113.9319212,22.5192802],[113.9321976,22.5192148],[113.9321815,22.5191578],[113.9328333,22.5190091],[113.9328493,22.519076],[113.9330366,22.5190329],[113.9329728,22.5188094]]},"properties":{"type":"water"}},{"type":"Feature","geometry":{"type":"LineString","coordinates":[[113.933199,22.5187503],[113.9332586,22.5189704],[113.9334152,22.5189365],[113.9334019,22.51889],[113.9339698,22.5187587],[113.9339828,22.5188091],[113.9340595,22.5187913],[113.9341334,22.5187741],[113.9341973,22.5187592],[113.9342919,22.5187372],[113.9343505,22.5187236],[113.9344288,22.5187054],[113.9344245,22.518652],[113.9343847,22.5186562],[113.9343804,22.5186038],[113.9342814,22.5186137],[113.9342731,22.5185131],[113.9341721,22.5185256],[113.9341674,22.518437],[113.9341042,22.5184409],[113.9341022,22.5184252],[113.9340123,22.5184309],[113.9340166,22.518466],[113.933915,22.5184811],[113.9337996,22.5185133],[113.9337042,22.5185475],[113.9336149,22.5185911],[113.933531,22.5186386],[113.9334471,22.5186785],[113.9333639,22.5187054],[113.933199,22.5187503]]},"properties":{"type":"water"}},{"type":"Feature","geometry":{"type":"LineString","coordinates":[[113.933905,22.5218474],[113.9341304,22.5218086],[113.9341362,22.5218587],[113.9342387,22.5218485],[113.9342346,22.5217978],[113.934508,22.5217713],[113.9345123,22.5218238],[113.9347499,22.5217966],[113.9347457,22.5217445],[113.9350159,22.5217142],[113.9350219,22.5217643],[113.9351396,22.5217502],[113.9351243,22.5216262],[113.9352714,22.5216082],[113.9352392,22.5215042],[113.9352955,22.5214843],[113.9352794,22.5214546],[113.9352124,22.52141],[113.9352004,22.5214394],[113.9351813,22.5214646],[113.9351534,22.5214794],[113.9348963,22.5215099],[113.9349024,22.5215723],[113.93422,22.5216454],[113.9342183,22.5216281],[113.9338862,22.5216712],[113.933905,22.5218474]]},"properties":{"type":"water"}},{"type":"Feature","geometry":{"type":"LineString","coordinates":[[113.9336695,22.5218901],[113.933639,22.521653],[113.9326129,22.5217632],[113.9326851,22.5220303],[113.9331363,22.5219818],[113.9331322,22.5219489],[113.9336695,22.5218901]]},"properties":{"type":"water"}},{"type":"Feature","geometry":{"type":"LineString","coordinates":[[113.9316359,22.5193462],[113.9315946,22.5191929],[113.9315277,22.5192146],[113.9314519,22.5192321],[113.9312278,22.5192681],[113.9310454,22.5192879],[113.9309713,22.5192923],[113.9309939,22.5194971],[113.9316359,22.5193462]]},"properties":{"type":"water"}},{"type":"Feature","geometry":{"type":"LineString","coordinates":[[113.9283672,22.5202308],[113.9285111,22.5202158],[113.9285058,22.5201728],[113.9283619,22.5201878],[113.9283672,22.5202308]]},"properties":{"type":"water"}},{"type":"Feature","geometry":{"type":"LineString","coordinates":[[113.9280919,22.519904],[113.9281112,22.5198786],[113.928142,22.5198489],[113.9281823,22.5198266],[113.9282439,22.5198018],[113.9283499,22.5197684],[113.9284545,22.5197423],[113.9291398,22.5196593],[113.9291676,22.519655],[113.9291897,22.5196438],[113.9292085,22.5196265],[113.9292172,22.5196079],[113.9292239,22.5195899],[113.9292346,22.5195689],[113.9292501,22.519554],[113.9292729,22.5195385],[113.929299,22.519528],[113.9293419,22.5195181],[113.9293942,22.5195113],[113.9293949,22.519668],[113.9292139,22.5196859],[113.9292152,22.5197231],[113.9289993,22.5197417],[113.9289289,22.5197541],[113.9288786,22.5197733],[113.9288404,22.5197931],[113.9287921,22.5198197],[113.9287532,22.5198402],[113.9286416,22.5198358],[113.9285958,22.5198365],[113.9285538,22.5198396],[113.9285167,22.519845],[113.928478,22.5198561],[113.9284368,22.5198745],[113.9285035,22.5198715],[113.9285715,22.519871],[113.9287016,22.5198767],[113.9286399,22.5199089],[113.928609,22.5199195],[113.9285695,22.5199281],[113.9285198,22.5199337],[113.92832,22.5199467],[113.9282751,22.5199535],[113.9282362,22.5199616],[113.9282013,22.519974],[113.9281612,22.5199882],[113.9281665,22.5199733],[113.9281758,22.5199554],[113.9281966,22.5199349],[113.9282255,22.519917],[113.9282576,22.5199046],[113.9282905,22.519891],[113.9282603,22.5198835],[113.9282268,22.5198804],[113.9281893,22.5198804],[113.9281363,22.5198891],[113.9280919,22.519904]]},"properties":{"type":"water"}},{"type":"Feature","geometry":{"type":"LineString","coordinates":[[113.9250739,22.5245321],[113.9250869,22.5245358],[113.9251132,22.5245433],[113.9251291,22.5245649],[113.9251225,22.5245943],[113.9251235,22.5246124],[113.9251609,22.5246237],[113.9251731,22.5246453],[113.9251918,22.524647],[113.9252161,22.5246332],[113.9252395,22.5246375],[113.9252554,22.5246375],[113.925261,22.5246185],[113.9252619,22.5245908],[113.9252862,22.5245762],[113.9252797,22.5245537],[113.9252769,22.5245356],[113.9252984,22.5245209],[113.9253433,22.524526],[113.9253592,22.5245468],[113.9253798,22.5245494],[113.9254004,22.5245364],[113.9254303,22.5245347],[113.9254396,22.5245226],[113.9254312,22.5245122],[113.9254116,22.5245088],[113.9254097,22.5244975],[113.9254157,22.5244841],[113.9253979,22.5244873],[113.9253938,22.524488],[113.925377,22.5244241],[113.9253929,22.5244189],[113.9254069,22.5243947],[113.9254275,22.524393],[113.9254378,22.5243956],[113.9254555,22.5244059],[113.9254758,22.5244001],[113.925463,22.5243481],[113.9254443,22.5243627],[113.9254322,22.5243809],[113.9254069,22.5243826],[113.9253854,22.5243939],[113.9253826,22.5244051],[113.925362,22.5244198],[113.9253414,22.5244215],[113.925319,22.5244275],[113.9253134,22.5244396],[113.9252993,22.5244491],[113.9253031,22.5244621],[113.925289,22.524469],[113.9252797,22.5244578],[113.9252797,22.5244483],[113.925261,22.5244543],[113.9252469,22.5244682],[113.9252516,22.5244811],[113.9252367,22.524488],[113.9252189,22.5244759],[113.9252123,22.5244543],[113.925218,22.5244301],[113.9252142,22.5244111],[113.9252376,22.5243982],[113.9252423,22.5243852],[113.9252161,22.524374],[113.9252039,22.5243558],[113.9251955,22.5243411],[113.9251665,22.5243411],[113.9251422,22.5243325],[113.9251151,22.5242979],[113.925101,22.5242634],[113.9250833,22.524221],[113.9250851,22.5241899],[113.925073,22.524183],[113.925072,22.5241709],[113.9250449,22.5241658],[113.9250159,22.5241865],[113.9249869,22.5241796],[113.924971,22.5241727],[113.9249701,22.5241493],[113.9249654,22.5241407],[113.9249701,22.5241269],[113.9249598,22.5241113],[113.9249551,22.5240932],[113.9249467,22.5240785],[113.9249383,22.5240387],[113.9249439,22.5240171],[113.9249289,22.5240068],[113.924914,22.5240258],[113.9248915,22.5240189],[113.9248887,22.5240336],[113.9249168,22.5240431],[113.9249158,22.5240543],[113.9249327,22.5240638],[113.9249233,22.5240785],[113.9249196,22.5240914],[113.9249186,22.5241035],[113.9249327,22.5241096],[113.924943,22.5241225],[113.9249392,22.5241407],[113.9249242,22.5241398],[113.9249247,22.5241607],[113.924899,22.5241735],[113.924899,22.5241891],[113.924914,22.5242046],[113.9249411,22.5242167],[113.9249635,22.5242107],[113.9249607,22.524196],[113.9249766,22.5242038],[113.924986,22.5241934],[113.9250047,22.5241986],[113.9250225,22.5241977],[113.9250543,22.5242012],[113.9250674,22.5242124],[113.9250683,22.5242262],[113.9250692,22.5242418],[113.9250898,22.5242642],[113.9250964,22.5242928],[113.9251076,22.5243049],[113.9251123,22.5243204],[113.9251244,22.5243403],[113.9251422,22.5243507],[113.9251562,22.5243507],[113.9251852,22.5243602],[113.9251908,22.5243705],[113.9251824,22.5243774],[113.9251656,22.5243861],[113.9251506,22.5243809],[113.9251338,22.5243843],[113.9251319,22.524393],[113.9251431,22.5243956],[113.9251459,22.5244137],[113.9251665,22.524418],[113.9251693,22.5244362],[113.9251534,22.5244509],[113.9251272,22.5244682],[113.9251132,22.5244906],[113.9251235,22.5244975],[113.9251254,22.5245157],[113.9251459,22.5245226],[113.9251375,22.5245381],[113.9251094,22.5245286],[113.9251001,22.5245148],[113.9250833,22.5245131],[113.9250795,22.524501],[113.9250758,22.5244915],[113.9250496,22.5245044],[113.9250533,22.52452],[113.9250739,22.5245321]]},"properties":{"type":"water"}}]}