{"type":"FeatureCollection","features":[{"type":"Feature","geometry":{"type":"Polygon","coordinates":[[[113.9264492,22.5211814],[113.92643,22.5211846],[113.9264261,22.5211645],[113.9263999,22.5211689],[113.9263944,22.5211408],[113.9264373,22.5211336],[113.9264436,22.5211651],[113.9265347,22.5211497],[113.9265158,22.5210541],[113.9265021,22.5209852],[113.926411,22.5210006],[113.926419,22.521041],[113.9263572,22.5210514],[113.9263818,22.5210186],[113.9262856,22.5209571],[113.9262759,22.5209701],[113.9262498,22.5209535],[113.9261743,22.5210546],[113.9261979,22.5210696],[113.926175,22.5211001],[113.9262737,22.5211631],[113.926291,22.52114],[113.9263001,22.5211858],[113.9262884,22.5211877],[113.9262924,22.5212079],[113.9262733,22.5212111],[113.9262809,22.5212495],[113.9264568,22.5212197],[113.9264492,22.5211814],[113.9264492,22.5211814]]]},"properties":{"building":"apartments"}},{"type":"Feature","geometry":{"type":"Polygon","coordinates":[[[113.9264739,22.5222912],[113.9264927,22.5222868],[113.9265021,22.5223213],[113.9264833,22.5223257],[113.9264858,22.5223348],[113.926362,22.5223635],[113.9263595,22.5223544],[113.9263407,22.5223588],[113.9263313,22.5223243],[113.9263501,22.52232],[113.9263447,22.5223001],[113.9263566,22.5222973],[113.9263459,22.5222582],[113.926316,22.5222651],[113.9263272,22.5223062],[113.9262815,22.5223168],[113.9262885,22.5223426],[113.9262521,22.5223511],[113.9262384,22.5223007],[113.9262224,22.5223044],[113.9261929,22.5221959],[113.9262088,22.5221922],[113.9261951,22.5221418],[113.9262316,22.5221333],[113.9262386,22.5221591],[113.9262842,22.5221485],[113.9262927,22.5221798],[113.9263476,22.5221671],[113.9263139,22.5221484],[113.9263755,22.5220533],[113.92641,22.5220724],[113.9264247,22.5220497],[113.9265388,22.5221127],[113.9265225,22.5221378],[113.9265372,22.5221459],[113.9264772,22.5222386],[113.92644,22.5222181],[113.9264557,22.5222757],[113.9264688,22.5222727],[113.9264739,22.5222912],[113.9264739,22.5222912]]]},"properties":{"building":"apartments"}},{"type":"Feature","geometry":{"type":"Polygon","coordinates":[[[113.9286917,22.521263],[113.9292011,22.5212045],[113.9296302,22.5211552],[113.9297203,22.5218244],[113.9293932,22.521862],[113.9289388,22.5219143],[113.9287818,22.5219323],[113.9286917,22.521263],[113.9286917,22.521263]]]},"properties":{"building":"commercial"}},{"type":"Feature","geometry":{"type":"Polygon","coordinates":[[[113.9320659,22.5195651],[113.9323636,22.5206479],[113.933478,22.5205178],[113.9335712,22.5205076],[113.933661,22.5204974],[113.9348123,22.5203622],[113.934638,22.5198575],[113.93352,22.5199873],[113.9334384,22.5199968],[113.9333533,22.5200077],[113.933259,22.5200177],[113.9330884,22.5194421],[113.9328252,22.5194738],[113.932507,22.5195121],[113.9323628,22.5195294],[113.9320659,22.5195651],[113.9320659,22.5195651]]]},"properties":{"building":"yes"}},{"type":"Feature","geometry":{"type":"Polygon","coordinates":[[[113.9343725,22.5190573],[113.934459,22.5192919],[113.9345609,22.5195685],[113.9339809,22.5197411],[113.9338755,22.5197607],[113.9337706,22.5197606],[113.9336843,22.5197472],[113.9336027,22.5197196],[113.9335293,22.5196797],[113.9334558,22.519628],[113.9334007,22.5195698],[113.933376,22.519517],[113.9333666,22.5194487],[113.9333754,22.5193654],[113.9334212,22.519273],[113.9335009,22.5191896],[113.9336062,22.5191231],[113.9337097,22.5190795],[113.9338092,22.5190573],[113.9340157,22.5190548],[113.9343725,22.5190573],[113.9343725,22.5190573]]]},"properties":{"building":"yes"}},{"type":"Feature","geometry":{"type":"Polygon","coordinates":[[[113.9324019,22.520839],[113.9325546,22.5214398],[113.9326152,22.5214333],[113.9326242,22.5215016],[113.9329825,22.5214603],[113.9335669,22.5213931],[113.9335239,22.5210752],[113.9334753,22.5207153],[113.9328992,22.5207817],[113.9324019,22.520839],[113.9324019,22.520839]]]},"properties":{"building":"commercial"}},{"type":"Feature","geometry":{"type":"Polygon","coordinates":[[[113.9299109,22.5211226],[113.9299548,22.5211177],[113.930783,22.5210253],[113.9309325,22.5210087],[113.9310117,22.5216271],[113.9309718,22.5216315],[113.9309768,22.5216704],[113.9305967,22.5217118],[113.9305927,22.5216798],[113.9304064,22.5217001],[113.9304105,22.5217327],[113.930028,22.5217743],[113.9300244,22.5217464],[113.9299913,22.52175],[113.9299109,22.5211226],[113.9299109,22.5211226]]]},"properties":{"building":"commercial"}},{"type":"Feature","geometry":{"type":"Polygon","coordinates":[[[113.9320128,22.5208832],[113.9321475,22.5213584],[113.9321709,22.5214407],[113.9322024,22.5215521],[113.9313259,22.5216464],[113.931226,22.5209754],[113.9313087,22.5209663],[113.9319831,22.520887],[113.9320128,22.5208832],[113.9320128,22.5208832]]]},"properties":{"building":"commercial"}},{"type":"Feature","geometry":{"type":"Polygon","coordinates":[[[113.9239363,22.5213662],[113.9239576,22.5214341],[113.9241473,22.522038],[113.9247555,22.521875],[113.9245445,22.5212032],[113.9239363,22.5213662],[113.9239363,22.5213662]]]},"properties":{"building":"retail"}},{"type":"Feature","geometry":{"type":"Polygon","coordinates":[[[113.9253123,22.5222607],[113.9250936,22.5228869],[113.9251894,22.5232452],[113.9254822,22.5231784],[113.9257912,22.5231111],[113.9258648,22.5229957],[113.9256525,22.5221793],[113.9253123,22.5222607],[113.9253123,22.5222607]]]},"properties":{"building":"yes"}},{"type":"Feature","geometry":{"type":"Polygon","coordinates":[[[113.9251859,22.5222488],[113.9249139,22.5223261],[113.9245015,22.5224435],[113.9246047,22.522753],[113.9246277,22.5228222],[113.9246166,22.5228856],[113.924611,22.5229503],[113.9246125,22.5230153],[113.9246212,22.5230797],[113.9246369,22.523143],[113.9246595,22.5232045],[113.9246887,22.5232635],[113.9247243,22.5233195],[113.9247658,22.5233719],[113.9247954,22.5233832],[113.9251859,22.5222488],[113.9251859,22.5222488]]]},"properties":{"building":"yes"}},{"type":"Feature","geometry":{"type":"Polygon","coordinates":[[[113.9329168,22.5175662],[113.9329457,22.5176746],[113.9337366,22.5174861],[113.9326328,22.5171064],[113.9326605,22.517216],[113.9334798,22.5170198],[113.9335881,22.5174054],[113.9329168,22.5175662],[113.9329168,22.5175662]]]},"properties":{"building":"apartments"}},{"type":"Feature","geometry":{"type":"Polygon","coordinates":[[[113.9324467,22.5171565],[113.9324765,22.5172664],[113.9316451,22.5174656],[113.9317533,22.5178511],[113.9324073,22.5176945],[113.9324407,22.5178028],[113.931666,22.5179883],[113.9314966,22.5173848],[113.9324467,22.5171565],[113.9324467,22.5171565]]]},"properties":{"building":"apartments"}},{"type":"Feature","geometry":{"type":"Polygon","coordinates":[[[113.9257116,22.5202642],[113.9258054,22.520621],[113.9257907,22.5206345],[113.9257817,22.5206473],[113.9257723,22.520667],[113.9257695,22.5206878],[113.9257696,22.5207062],[113.925775,22.5207265],[113.9257848,22.5207455],[113.9257986,22.5207588],[113.9258158,22.5207676],[113.9258378,22.5207743],[113.9258586,22.5207785],[113.9258856,22.5207766],[113.9259085,22.5207688],[113.9259256,22.5207563],[113.9259395,22.5207371],[113.925948,22.5207163],[113.9262399,22.5206666],[113.9262087,22.5205203],[113.9261305,22.5205353],[113.9261395,22.5205746],[113.9259293,22.5206096],[113.9258349,22.5202395],[113.9257116,22.5202642],[113.9257116,22.5202642]]]},"properties":{"building":"yes"}},{"type":"Feature","geometry":{"type":"Polygon","coordinates":[[[113.9260217,22.5199017],[113.9259054,22.5198933],[113.9259118,22.5198183],[113.925738,22.5198057],[113.9257316,22.5198808],[113.9256932,22.5198781],[113.9256948,22.5198601],[113.9256633,22.5198578],[113.9256467,22.5200537],[113.9256778,22.520056],[113.9256793,22.5200381],[113.9257176,22.5200409],[113.9257129,22.5200964],[113.9258677,22.5201076],[113.9258724,22.5200521],[113.9259888,22.5200605],[113.9259964,22.5199702],[113.9260158,22.5199716],[113.9260217,22.5199017],[113.9260217,22.5199017]]]},"properties":{"building":"apartments"}},{"type":"Feature","geometry":{"type":"Polygon","coordinates":[[[113.9273623,22.5206749],[113.9273484,22.5204054],[113.9273458,22.5203498],[113.9272154,22.5203513],[113.9272157,22.5203302],[113.9270824,22.520322],[113.9270551,22.5206803],[113.9270794,22.5206818],[113.9270774,22.5207217],[113.9272809,22.5207308],[113.9272812,22.5206766],[113.9273623,22.5206749],[113.9273623,22.5206749]]]},"properties":{"building":"yes"}},{"type":"Feature","geometry":{"type":"Polygon","coordinates":[[[113.9295205,22.5185938],[113.9293569,22.5186309],[113.9292412,22.5186571],[113.9282129,22.5188904],[113.9280336,22.518216],[113.9280973,22.5181354],[113.9284004,22.5180667],[113.9285294,22.5185525],[113.9294538,22.518343],[113.9295205,22.5185938],[113.9295205,22.5185938]]]},"properties":{"building":"yes"}},{"type":"Feature","geometry":{"type":"Polygon","coordinates":[[[113.92635,22.5247196],[113.9262498,22.5243389],[113.9261132,22.5243696],[113.9261594,22.5245409],[113.9261282,22.5246243],[113.9260514,22.5246437],[113.9260869,22.5247787],[113.92635,22.5247196],[113.92635,22.5247196]]]},"properties":{"building":"yes"}},{"type":"Feature","geometry":{"type":"Polygon","coordinates":[[[113.9272439,22.5232017],[113.9273255,22.5235328],[113.9270358,22.5235937],[113.9270077,22.5234755],[113.9265024,22.5235825],[113.9264497,22.5233687],[113.9272439,22.5232017],[113.9272439,22.5232017]]]},"properties":{"building":"apartments"}},{"type":"Feature","geometry":{"type":"Polygon","coordinates":[[[113.9293723,22.5186902],[113.9293569,22.5186309],[113.9292412,22.5186571],[113.9292738,22.518783],[113.9291781,22.5188042],[113.9292825,22.5192057],[113.9296608,22.5191218],[113.929539,22.5186532],[113.9293723,22.5186902],[113.9293723,22.5186902]]]},"properties":{"building":"yes"}},{"type":"Feature","geometry":{"type":"Polygon","coordinates":[[[113.9293739,22.5182862],[113.9293493,22.5181962],[113.9288239,22.5183186],[113.9288485,22.5184087],[113.9293739,22.5182862],[113.9293739,22.5182862]]]},"properties":{"building":"yes"}},{"type":"Feature","geometry":{"type":"Polygon","coordinates":[[[113.929042,22.518757],[113.9290587,22.5188307],[113.9282439,22.5190154],[113.9282284,22.5189581],[113.9282249,22.5189458],[113.929042,22.518757],[113.929042,22.518757]]]},"properties":{"building":"yes"}},{"type":"Feature","geometry":{"type":"Polygon","coordinates":[[[113.9281353,22.5191001],[113.9281046,22.5189866],[113.9282284,22.5189581],[113.9282439,22.5190154],[113.9282591,22.5190715],[113.9281353,22.5191001],[113.9281353,22.5191001]]]},"properties":{"building":"yes"}},{"type":"Feature","geometry":{"type":"Polygon","coordinates":[[[113.9290731,22.5188831],[113.9290587,22.5188307],[113.9291781,22.5188042],[113.9292825,22.5192057],[113.9291676,22.5192314],[113.9291565,22.519187],[113.9282208,22.5194065],[113.9281353,22.5191001],[113.9282591,22.5190715],[113.9290731,22.5188831],[113.9290731,22.5188831]]]},"properties":{"building":"yes"}},{"type":"Feature","geometry":{"type":"Polygon","coordinates":[[[113.9233302,22.5225719],[113.9234563,22.5225347],[113.9234933,22.5225553],[113.9236408,22.5228947],[113.9235421,22.5229237],[113.9233302,22.5225719],[113.9233302,22.5225719]]]},"properties":{"building":"yes"}},{"type":"Feature","geometry":{"type":"Polygon","coordinates":[[[113.9239516,22.5185345],[113.9240072,22.5186694],[113.9240372,22.5188248],[113.9240355,22.5189691],[113.9238799,22.5189676],[113.9238814,22.5188367],[113.9238565,22.5187079],[113.9238061,22.5185857],[113.9239516,22.5185345],[113.9239516,22.5185345]]]},"properties":{"building":"apartments"}},{"type":"Feature","geometry":{"type":"Polygon","coordinates":[[[113.923842,22.5184284],[113.9237041,22.5183606],[113.923541,22.5183136],[113.9233858,22.518297],[113.9233679,22.5184398],[113.9235086,22.5184548],[113.9236438,22.5184938],[113.9237689,22.5185553],[113.923842,22.5184284],[113.923842,22.5184284]]]},"properties":{"building":"apartments"}},{"type":"Feature","geometry":{"type":"Polygon","coordinates":[[[113.9324015,22.523423],[113.9319836,22.5234662],[113.9320121,22.5237021],[113.9324301,22.523659],[113.9324015,22.523423],[113.9324015,22.523423]]]},"properties":{"building":"commercial"}},{"type":"Feature","geometry":{"type":"Polygon","coordinates":[[[113.9318787,22.5185324],[113.9318003,22.518504],[113.9316939,22.5181172],[113.9317205,22.5180671],[113.9319266,22.5180195],[113.9319961,22.518277],[113.9320887,22.5183331],[113.9321108,22.5183287],[113.9321334,22.5182464],[113.9335381,22.5179093],[113.9335615,22.5179934],[113.9336385,22.5179757],[113.9336697,22.5178983],[113.9335961,22.5176319],[113.9337815,22.5175895],[113.9338498,22.5176071],[113.9339553,22.5179961],[113.9339244,22.5180618],[113.9318787,22.5185324],[113.9318787,22.5185324]]]},"properties":{"building":"retail"}},{"type":"Feature","geometry":{"type":"Polygon","coordinates":[[[113.9289039,22.5238341],[113.9292579,22.5241446],[113.9293997,22.5240066],[113.9290458,22.5236961],[113.9289039,22.5238341],[113.9289039,22.5238341]]]},"properties":{"building":"yes"}},{"type":"Feature","geometry":{"type":"Polygon","coordinates":[[[113.923759,22.5210486],[113.9238101,22.5209667],[113.9240249,22.521078],[113.9241644,22.521078],[113.9242019,22.5211845],[113.9238559,22.5212812],[113.923759,22.5210486],[113.923759,22.5210486]]]},"properties":{"building":"yes"}},{"type":"Feature","geometry":{"type":"Polygon","coordinates":[[[113.9242753,22.5209413],[113.9243236,22.5211102],[113.9244048,22.5210904],[113.9243913,22.5210431],[113.9244556,22.5210274],[113.9244211,22.5209068],[113.9243468,22.5209249],[113.924342,22.5209084],[113.9243643,22.520873],[113.9243964,22.5208902],[113.9244237,22.5208469],[113.9244062,22.5208375],[113.9244363,22.5207896],[113.9242781,22.5207046],[113.9242479,22.5207525],[113.9242304,22.5207431],[113.9242032,22.5207864],[113.9242353,22.5208036],[113.924213,22.5208391],[113.9241951,22.5208434],[113.9241754,22.5207748],[113.9240448,22.5208067],[113.9240618,22.5208662],[113.9240107,22.5208786],[113.9240322,22.5209536],[113.924215,22.520909],[113.9242753,22.5209413],[113.9242753,22.5209413]]]},"properties":{"building":"apartments"}},{"type":"Feature","geometry":{"type":"Polygon","coordinates":[[[113.9275648,22.5243917],[113.9275466,22.5243253],[113.9275236,22.5242411],[113.9275149,22.5242094],[113.9278847,22.524123],[113.9279346,22.5243053],[113.9275648,22.5243917],[113.9275648,22.5243917]]]},"properties":{"building":"apartments"}},{"type":"Feature","geometry":{"type":"Polygon","coordinates":[[[113.9268792,22.5225191],[113.9267656,22.5225438],[113.9267469,22.5224705],[113.9265772,22.5225074],[113.926596,22.5225807],[113.9265585,22.5225889],[113.926554,22.5225713],[113.9265233,22.522578],[113.9265721,22.5227693],[113.9266024,22.5227627],[113.926598,22.5227453],[113.9266354,22.5227371],[113.9266492,22.5227913],[113.9268003,22.5227584],[113.9267865,22.5227042],[113.9269001,22.5226795],[113.9268776,22.5225914],[113.9268966,22.5225872],[113.9268792,22.5225191],[113.9268792,22.5225191]]]},"properties":{"building":"apartments"}},{"type":"Feature","geometry":{"type":"Polygon","coordinates":[[[113.9250936,22.5228869],[113.9253863,22.5228201],[113.9254822,22.5231784],[113.9251894,22.5232452],[113.9250936,22.5228869],[113.9250936,22.5228869]]]},"properties":{"building":"commercial"}},{"type":"Feature","geometry":{"type":"Polygon","coordinates":[[[113.9281124,22.5240193],[113.9280282,22.5237355],[113.9279359,22.5237588],[113.9279662,22.5238611],[113.92784,22.5238946],[113.9278625,22.5239666],[113.9279883,22.5239353],[113.9280201,22.5240427],[113.9281124,22.5240193],[113.9281124,22.5240193]]]},"properties":{"building":"yes"}},{"type":"Feature","geometry":{"type":"Polygon","coordinates":[[[113.928016,22.5236007],[113.9279583,22.5233955],[113.9275503,22.5234933],[113.927608,22.5236985],[113.928016,22.5236007],[113.928016,22.5236007]]]},"properties":{"building":"apartments"}},{"type":"Feature","geometry":{"type":"Polygon","coordinates":[[[113.9344051,22.5212276],[113.9344176,22.5214132],[113.9347887,22.5213917],[113.934774,22.5211737],[113.9350733,22.5211406],[113.9350591,22.5210589],[113.9350285,22.52096],[113.9349782,22.5208518],[113.9349069,22.520767],[113.9348249,22.5207054],[113.9347252,22.5206543],[113.9346393,22.5206222],[113.9345345,22.5206011],[113.9344333,22.5206027],[113.9342287,22.5206268],[113.9337503,22.520683],[113.933736,22.5207187],[113.9338139,22.5212358],[113.9339618,22.5212582],[113.9339698,22.5213005],[113.9343086,22.5212461],[113.9344051,22.5212276],[113.9344051,22.5212276]]]},"properties":{"building":"yes"}},{"type":"Feature","geometry":{"type":"Polygon","coordinates":[[[113.9338139,22.5212358],[113.93383,22.5211763],[113.9338568,22.5211261],[113.9338917,22.5210839],[113.9339346,22.5210443],[113.9339829,22.521022],[113.9340473,22.5209972],[113.9341063,22.5209873],[113.9341733,22.5209898],[113.9342511,22.5210047],[113.9343128,22.5210319],[113.9343665,22.5210772],[113.9344121,22.5211391],[113.9343006,22.5212036],[113.9343086,22.5212461],[113.9339698,22.5213005],[113.9339618,22.5212582],[113.9338139,22.5212358],[113.9338139,22.5212358]]]},"properties":{"building":"hotel"}},{"type":"Feature","geometry":{"type":"Polygon","coordinates":[[[113.9329493,22.5239805],[113.9330617,22.5239706],[113.9330266,22.523633],[113.9329143,22.5236429],[113.9329493,22.5239805],[113.9329493,22.5239805]]]},"properties":{"building":"yes"}},{"type":"Feature","geometry":{"type":"Polygon","coordinates":[[[113.9293766,22.5205999],[113.9293561,22.5206162],[113.9293233,22.5206275],[113.9292846,22.5206333],[113.9292415,22.5206398],[113.9290489,22.5206644],[113.9290247,22.5206653],[113.9289892,22.5206668],[113.928959,22.5206631],[113.9289369,22.5206516],[113.9289184,22.5206307],[113.9289117,22.5206123],[113.9289058,22.5205867],[113.9288984,22.5205438],[113.9288838,22.5204459],[113.928877,22.5203942],[113.9288747,22.5203578],[113.928878,22.52034],[113.928887,22.5203287],[113.9289015,22.5203187],[113.9289263,22.52031],[113.9289946,22.5202975],[113.9291944,22.520272],[113.9292666,22.520265],[113.9292987,22.520266],[113.9293299,22.5202747],[113.929346,22.5202964],[113.9293564,22.5203279],[113.9293678,22.520394],[113.9293812,22.5204838],[113.929387,22.5205385],[113.9293847,22.5205738],[113.9293766,22.5205999],[113.9293766,22.5205999]]]},"properties":{"building":"commercial"}},{"type":"Feature","geometry":{"type":"Polygon","coordinates":[[[113.9286917,22.5207029],[113.9287026,22.5206814],[113.928705,22.520656],[113.9287019,22.5206086],[113.9286972,22.5205588],[113.9286832,22.5204577],[113.9286746,22.5204075],[113.9286646,22.5203653],[113.9286519,22.5203397],[113.9286378,22.5203239],[113.9286141,22.5203149],[113.9285886,22.5203113],[113.928539,22.5203114],[113.9284845,22.5203156],[113.928428,22.5203223],[113.9283715,22.520329],[113.9283236,22.520336],[113.9282783,22.520345],[113.928251,22.520356],[113.9282332,22.5203709],[113.9282247,22.5203932],[113.9282222,22.5204202],[113.9282231,22.5204714],[113.9282279,22.5205219],[113.9282416,22.5206208],[113.9282495,22.5206668],[113.928259,22.5207118],[113.9282687,22.5207352],[113.9282839,22.5207495],[113.9283043,22.5207591],[113.9283358,22.520763],[113.9283753,22.5207614],[113.928426,22.5207569],[113.928484,22.52075],[113.928543,22.520743],[113.9286025,22.5207352],[113.9286554,22.5207255],[113.9286752,22.5207176],[113.9286917,22.5207029],[113.9286917,22.5207029]]]},"properties":{"building":"commercial"}},{"type":"Feature","geometry":{"type":"Polygon","coordinates":[[[113.9289297,22.5207794],[113.9289317,22.520802],[113.9289554,22.5209582],[113.9289599,22.5209799],[113.9289687,22.5209945],[113.9289815,22.5210016],[113.9289987,22.5210055],[113.9290349,22.5210065],[113.9290746,22.5210023],[113.9292042,22.5209869],[113.9293362,22.5209712],[113.9293795,22.5209652],[113.929417,22.520957],[113.9294312,22.5209481],[113.9294402,22.5209352],[113.9294433,22.5209162],[113.9294426,22.5208952],[113.9294308,22.5208171],[113.9294189,22.5207391],[113.9294134,22.5207162],[113.9294057,22.5206996],[113.9293951,22.5206896],[113.9293751,22.5206858],[113.9293388,22.5206879],[113.9292943,22.5206932],[113.9290348,22.5207267],[113.9289901,22.5207344],[113.9289554,22.5207429],[113.9289387,22.5207534],[113.9289313,22.5207654],[113.9289297,22.5207794],[113.9289297,22.5207794]]]},"properties":{"building":"commercial"}},{"type":"Feature","geometry":{"type":"Polygon","coordinates":[[[113.9297396,22.5189684],[113.9299034,22.5189275],[113.9299118,22.5189563],[113.9299879,22.5189373],[113.9299196,22.5187035],[113.9300062,22.5186819],[113.9300272,22.5187537],[113.9303716,22.5186679],[113.9303314,22.51853],[113.929899,22.5186377],[113.9298305,22.5184031],[113.9299215,22.5183804],[113.9299423,22.5184519],[113.9302691,22.5183704],[113.9302326,22.5182455],[113.9298137,22.51835],[113.9297395,22.518096],[113.9298462,22.5180694],[113.9298744,22.5181658],[113.930203,22.5180838],[113.9301638,22.51795],[113.92973,22.5180583],[113.9297243,22.5180387],[113.9297178,22.5180164],[113.9294914,22.5180729],[113.9295243,22.5181853],[113.9296585,22.5181518],[113.9296844,22.5182401],[113.9295545,22.5182725],[113.9296491,22.5185957],[113.9297867,22.5185614],[113.9298302,22.5187101],[113.9297908,22.51872],[113.9298011,22.5187553],[113.9296857,22.5187841],[113.9297396,22.5189684],[113.9297396,22.5189684]]]},"properties":{"building":"school"}},{"type":"Feature","geometry":{"type":"Polygon","coordinates":[[[113.9234661,22.5238818],[113.9234332,22.5239161],[113.9234085,22.5239558],[113.9233931,22.5239993],[113.9233877,22.5240449],[113.9233924,22.5240905],[113.9234071,22.5241342],[113.9234311,22.5241743],[113.9234634,22.524209],[113.9235028,22.5242369],[113.9235475,22.5242568],[113.9236675,22.5242346],[113.9237004,22.5242003],[113.9237251,22.5241606],[113.9237405,22.524117],[113.923746,22.5240715],[113.9237412,22.5240259],[113.9237266,22.5239822],[113.9237025,22.5239421],[113.9236702,22.5239074],[113.9236308,22.5238795],[113.9235862,22.5238596],[113.9234661,22.5238818],[113.9234661,22.5238818]]]},"properties":{"building":"hotel"}},{"type":"Feature","geometry":{"type":"Polygon","coordinates":[[[113.9309012,22.5180795],[113.9309864,22.5180583],[113.9309803,22.5180371],[113.9311912,22.5179847],[113.9311436,22.5178213],[113.9308475,22.5178948],[113.9309012,22.5180795],[113.9309012,22.5180795]]]},"properties":{"building":"roof"}},{"type":"Feature","geometry":{"type":"Polygon","coordinates":[[[113.9315361,22.5240659],[113.931623,22.5239832],[113.9316047,22.5239669],[113.9316813,22.5239658],[113.931665,22.5239813],[113.9317181,22.5240289],[113.9317774,22.5239724],[113.9317733,22.5239687],[113.9318275,22.5239171],[113.9317741,22.5238693],[113.9317839,22.5238599],[113.9317643,22.5238423],[113.931797,22.5238112],[113.9317312,22.5237523],[113.9316799,22.5238012],[113.9316111,22.5238021],[113.9315565,22.5237532],[113.9315042,22.523803],[113.9315381,22.5238334],[113.9315196,22.5238511],[113.9315081,22.5238408],[113.931433,22.5239124],[113.9314715,22.5239468],[113.9314639,22.5239541],[113.9315199,22.5240043],[113.9314944,22.5240285],[113.9315361,22.5240659],[113.9315361,22.5240659]]]},"properties":{"building":"apartments"}},{"type":"Feature","geometry":{"type":"Polygon","coordinates":[[[113.9294947,22.5229799],[113.9296168,22.5230717],[113.9296703,22.5230111],[113.9296449,22.5229877],[113.9296573,22.5229763],[113.9297297,22.5229688],[113.929745,22.5229779],[113.9297263,22.5230043],[113.9297964,22.5230569],[113.9298971,22.5229421],[113.9298102,22.522877],[113.9298439,22.5228387],[113.929763,22.522778],[113.9297137,22.5228341],[113.9296496,22.5228403],[113.9295931,22.522798],[113.9295299,22.5228699],[113.9295672,22.522897],[113.9294947,22.5229799],[113.9294947,22.5229799]]]},"properties":{"building":"apartments"}},{"type":"Feature","geometry":{"type":"Polygon","coordinates":[[[113.9310496,22.523995],[113.9309646,22.5240735],[113.9309267,22.5240385],[113.9309752,22.5239938],[113.9308882,22.5239134],[113.9309247,22.5238796],[113.930943,22.5238965],[113.9309856,22.5238572],[113.9309155,22.5237925],[113.93097,22.5237421],[113.9310424,22.523809],[113.9311078,22.5238087],[113.9311772,22.5237446],[113.9312297,22.5237931],[113.9311747,22.5238439],[113.9312463,22.52391],[113.9312602,22.5238971],[113.9312863,22.5239213],[113.9312042,22.5239972],[113.9312394,22.5240297],[113.9311903,22.5240751],[113.9311041,22.5239955],[113.9311056,22.5239941],[113.9310496,22.523995],[113.9310496,22.523995]]]},"properties":{"building":"apartments"}},{"type":"Feature","geometry":{"type":"Polygon","coordinates":[[[113.9305153,22.5240009],[113.9304303,22.5240794],[113.9303924,22.5240444],[113.9304408,22.5239996],[113.9303538,22.5239193],[113.9303904,22.5238855],[113.9304087,22.5239024],[113.9304512,22.5238631],[113.9303812,22.5237983],[113.9304356,22.523748],[113.9305081,22.5238149],[113.9305734,22.5238146],[113.9306428,22.5237505],[113.9306953,22.523799],[113.9306403,22.5238497],[113.9307119,22.5239159],[113.9307258,22.523903],[113.930752,22.5239272],[113.9306698,22.524003],[113.930705,22.5240356],[113.9306559,22.5240809],[113.9305698,22.5240013],[113.9305713,22.524],[113.9305153,22.5240009],[113.9305153,22.5240009]]]},"properties":{"building":"apartments"}},{"type":"Feature","geometry":{"type":"Polygon","coordinates":[[[113.9299284,22.5235005],[113.9298779,22.5234557],[113.9299449,22.5233913],[113.9297949,22.5232583],[113.929759,22.5232928],[113.9297199,22.5232581],[113.929585,22.5233879],[113.9296659,22.5234598],[113.9296132,22.5235098],[113.9296721,22.5235583],[113.9297442,22.523496],[113.9297389,22.5234916],[113.9297387,22.5234781],[113.9297884,22.5234774],[113.9297886,22.523491],[113.9297856,22.5234939],[113.9298678,22.5235606],[113.9299294,22.5235013],[113.9299284,22.5235005],[113.9299284,22.5235005]]]},"properties":{"building":"apartments"}},{"type":"Feature","geometry":{"type":"Polygon","coordinates":[[[113.9299777,22.524032],[113.9299272,22.5239872],[113.9299942,22.5239228],[113.9298442,22.5237898],[113.9298083,22.5238243],[113.9297692,22.5237896],[113.9296343,22.5239194],[113.9297152,22.5239913],[113.9296625,22.5240413],[113.9297215,22.5240898],[113.9297935,22.5240275],[113.9297882,22.5240231],[113.929788,22.5240096],[113.9298377,22.5240089],[113.9298379,22.5240225],[113.9298349,22.5240254],[113.9299171,22.5240921],[113.9299787,22.5240328],[113.9299777,22.524032],[113.9299777,22.524032]]]},"properties":{"building":"apartments"}},{"type":"Feature","geometry":{"type":"Polygon","coordinates":[[[113.9309337,22.5229981],[113.93091,22.5230469],[113.9309407,22.5230611],[113.9309195,22.5231002],[113.9308948,22.5230907],[113.9308847,22.5231117],[113.9308871,22.5231131],[113.9308931,22.5231171],[113.9309016,22.5231241],[113.9309111,22.5231339],[113.9309204,22.5231469],[113.9309281,22.523163],[113.9309328,22.5231823],[113.9309333,22.523205],[113.9309323,22.523235],[113.9309297,22.5232499],[113.9309149,22.5232647],[113.9308918,22.5232777],[113.9308699,22.5232833],[113.9308313,22.523286],[113.9307989,22.5232763],[113.9307722,22.5232573],[113.9307507,22.5232323],[113.9307341,22.5232046],[113.9307219,22.5231774],[113.9307138,22.5231539],[113.9307092,22.5231374],[113.9307238,22.5230993],[113.9306146,22.5230488],[113.9305148,22.5230135],[113.9304151,22.5229926],[113.9303089,22.5229894],[113.9302217,22.5229885],[113.9301468,22.522993],[113.9300882,22.523],[113.9300501,22.5230064],[113.9300365,22.5230092],[113.9300015,22.522861],[113.9300243,22.5228519],[113.9300573,22.5228439],[113.9301081,22.5228352],[113.930178,22.5228245],[113.9302658,22.5228188],[113.9303704,22.5228217],[113.9304911,22.5228369],[113.9306267,22.5228679],[113.9307709,22.5229246],[113.9309337,22.5229981],[113.9309337,22.5229981]]]},"properties":{"building":"apartments"}},{"type":"Feature","geometry":{"type":"Polygon","coordinates":[[[113.9290348,22.5207267],[113.9292943,22.5206932],[113.9292846,22.5206333],[113.9292415,22.5206398],[113.9290489,22.5206644],[113.9290247,22.5206653],[113.9290348,22.5207267],[113.9290348,22.5207267]]]},"properties":{"building":"yes"}},{"type":"Feature","geometry":{"type":"Polygon","coordinates":[[[113.9286646,22.5203653],[113.928878,22.52034],[113.9288747,22.5203578],[113.928877,22.5203942],[113.9288838,22.5204459],[113.9288984,22.5205438],[113.9289058,22.5205867],[113.9289117,22.5206123],[113.9289184,22.5206307],[113.928705,22.520656],[113.9287019,22.5206086],[113.9286972,22.5205588],[113.9286832,22.5204577],[113.9286746,22.5204075],[113.9286646,22.5203653],[113.9286646,22.5203653]]]},"properties":{"building":"yes"}},{"type":"Feature","geometry":{"type":"Polygon","coordinates":[[[113.9292596,22.5200412],[113.9293294,22.5200332],[113.9293031,22.5198352],[113.9292333,22.5198431],[113.9292596,22.5200412],[113.9292596,22.5200412]]]},"properties":{"building":"yes"}},{"type":"Feature","geometry":{"type":"Polygon","coordinates":[[[113.9289613,22.5199504],[113.92922,22.5199209],[113.9292104,22.519849],[113.9289517,22.5198785],[113.9289613,22.5199504],[113.9289613,22.5199504]]]},"properties":{"building":"yes"}},{"type":"Feature","geometry":{"type":"Polygon","coordinates":[[[113.9320723,22.52411],[113.9325028,22.5241081],[113.9324803,22.5238576],[113.9320526,22.5238904],[113.9320723,22.52411],[113.9320723,22.52411]]]},"properties":{"building":"commercial"}},{"type":"Feature","geometry":{"type":"Polygon","coordinates":[[[113.9330134,22.5241516],[113.9335654,22.5240993],[113.9335544,22.5240006],[113.9335336,22.5240025],[113.933526,22.5239335],[113.9329948,22.5239839],[113.9330134,22.5241516],[113.9330134,22.5241516]]]},"properties":{"building":"yes"}},{"type":"Feature","geometry":{"type":"Polygon","coordinates":[[[113.9305697,22.5189034],[113.9305503,22.5188374],[113.9305471,22.5188268],[113.9309987,22.5187159],[113.9310206,22.5187923],[113.9305697,22.5189034],[113.9305697,22.5189034]]]},"properties":{"building":"yes"}},{"type":"Feature","geometry":{"type":"Polygon","coordinates":[[[113.9305697,22.5189034],[113.930425,22.5189397],[113.9304056,22.5188736],[113.9305503,22.5188374],[113.9305697,22.5189034],[113.9305697,22.5189034]]]},"properties":{"building":"yes"}},{"type":"Feature","geometry":{"type":"Polygon","coordinates":[[[113.9287768,22.5231025],[113.9287483,22.5228663],[113.9292342,22.5228163],[113.9292627,22.5230526],[113.9287768,22.5231025],[113.9287768,22.5231025]]]},"properties":{"building":"yes"}},{"type":"Feature","geometry":{"type":"Polygon","coordinates":[[[113.9271503,22.5191806],[113.9271059,22.5191344],[113.9269598,22.5192543],[113.9270058,22.5193021],[113.9270412,22.519273],[113.9270831,22.5192753],[113.9270811,22.5193062],[113.9270575,22.5193049],[113.9270566,22.5193192],[113.9270195,22.5193171],[113.927018,22.5193403],[113.926984,22.5193384],[113.9269811,22.5193829],[113.9272925,22.5194],[113.9272953,22.5193555],[113.9272613,22.5193536],[113.9272628,22.5193305],[113.9272257,22.5193284],[113.9272266,22.5193142],[113.927203,22.5193129],[113.927205,22.519282],[113.9272469,22.5192843],[113.9272783,22.519317],[113.9273301,22.5192746],[113.9272003,22.5191396],[113.9271503,22.5191806],[113.9271503,22.5191806]]]},"properties":{"building":"apartments"}},{"type":"Feature","geometry":{"type":"Polygon","coordinates":[[[113.9269196,22.5183078],[113.9269201,22.5183695],[113.9269568,22.5183693],[113.9269574,22.518443],[113.9267625,22.5184443],[113.9267619,22.5183706],[113.9268139,22.5183702],[113.9268134,22.5183085],[113.9267615,22.5183089],[113.926761,22.5182449],[113.9269558,22.5182436],[113.9269563,22.5183076],[113.9269196,22.5183078],[113.9269196,22.5183078]]]},"properties":{"building":"apartments"}},{"type":"Feature","geometry":{"type":"Polygon","coordinates":[[[113.927203,22.518444],[113.927229,22.5184439],[113.9272294,22.5184876],[113.9272411,22.5184875],[113.9272414,22.5185205],[113.9272928,22.5185201],[113.9272911,22.5183044],[113.9272019,22.518305],[113.9272015,22.5182433],[113.927006,22.5182446],[113.9270065,22.5183085],[113.9270539,22.5183082],[113.9271081,22.5183576],[113.9270738,22.5183898],[113.9270461,22.5183646],[113.9270285,22.5183811],[113.9270146,22.5183685],[113.9269807,22.5184003],[113.927119,22.5185261],[113.9271528,22.5184944],[113.927139,22.5184818],[113.9271566,22.5184652],[113.9271289,22.51844],[113.9271633,22.5184078],[113.927203,22.518444],[113.927203,22.518444]]]},"properties":{"building":"apartments"}},{"type":"Feature","geometry":{"type":"Polygon","coordinates":[[[113.9235001,22.5200659],[113.9233598,22.519996],[113.9233817,22.5199586],[113.9234266,22.519981],[113.9234566,22.5199297],[113.9234914,22.5199313],[113.9235253,22.5199386],[113.9235574,22.5199513],[113.9235864,22.5199691],[113.9236117,22.5199913],[113.9236322,22.5200173],[113.9236214,22.5200358],[113.9237451,22.5200975],[113.9236906,22.5201909],[113.9236622,22.5201767],[113.923632,22.5202283],[113.9235972,22.5202267],[113.9235633,22.5202194],[113.9235312,22.5202067],[113.9235022,22.5201889],[113.923477,22.5201667],[113.9234564,22.5201407],[113.9235001,22.5200659],[113.9235001,22.5200659]]]},"properties":{"building":"apartments"}},{"type":"Feature","geometry":{"type":"Polygon","coordinates":[[[113.924137,22.5204088],[113.9242772,22.5204787],[113.9242991,22.5204413],[113.9242542,22.5204189],[113.9242841,22.5203676],[113.9242635,22.5203416],[113.9242383,22.5203194],[113.9242092,22.5203016],[113.9241772,22.5202889],[113.9241433,22.5202817],[113.9241084,22.5202801],[113.9240977,22.5202985],[113.9239739,22.5202368],[113.9239194,22.5203303],[113.9239477,22.5203444],[113.9239176,22.520396],[113.9239382,22.520422],[113.9239634,22.5204442],[113.9239925,22.520462],[113.9240245,22.5204747],[113.9240584,22.5204819],[113.9240933,22.5204835],[113.924137,22.5204088],[113.924137,22.5204088]]]},"properties":{"building":"apartments"}},{"type":"Feature","geometry":{"type":"Polygon","coordinates":[[[113.9353559,22.5194498],[113.9357288,22.5193385],[113.9356996,22.5192549],[113.9358892,22.5191979],[113.9358328,22.5190379],[113.9357709,22.518859],[113.9355808,22.5189157],[113.9352058,22.5190277],[113.9353267,22.519367],[113.9353559,22.5194498],[113.9353559,22.5194498]]]},"properties":{"building":"commercial"}},{"type":"Feature","geometry":{"type":"Polygon","coordinates":[[[113.934976,22.5177201],[113.9348799,22.5173868],[113.9348821,22.5173602],[113.9348932,22.5173369],[113.9349189,22.5173182],[113.9349328,22.5173149],[113.9352345,22.5172432],[113.9352921,22.5172295],[113.9353143,22.5172314],[113.9353341,22.5172447],[113.9353491,22.5172652],[113.9354284,22.5175401],[113.9354497,22.5176139],[113.9354472,22.5176367],[113.9354351,22.5176584],[113.9354105,22.5176704],[113.9350485,22.5177595],[113.9350228,22.5177578],[113.9350018,22.5177525],[113.9349849,22.5177372],[113.934976,22.5177201],[113.934976,22.5177201]]]},"properties":{"building":"commercial"}},{"type":"Feature","geometry":{"type":"Polygon","coordinates":[[[113.9350668,22.5186207],[113.9357174,22.5184473],[113.9355921,22.5181091],[113.9350869,22.5182338],[113.9349984,22.5184289],[113.9350668,22.5186207],[113.9350668,22.5186207]]]},"properties":{"building":"retail"}},{"type":"Feature","geometry":{"type":"Polygon","coordinates":[[[113.9345511,22.5171426],[113.9345636,22.5171719],[113.934578,22.5171997],[113.9346046,22.517236],[113.9347443,22.5173563],[113.9348203,22.5174332],[113.934836,22.5174625],[113.9348958,22.5176638],[113.9348942,22.5176953],[113.9348819,22.517728],[113.9348628,22.5177626],[113.9349629,22.5177972],[113.9349768,22.5177595],[113.9350018,22.5177525],[113.9349849,22.5177372],[113.934976,22.5177201],[113.9348799,22.5173868],[113.9348821,22.5173602],[113.9348932,22.5173369],[113.9349189,22.5173182],[113.9349328,22.5173149],[113.9348287,22.5171825],[113.9347942,22.5171357],[113.9347851,22.5171117],[113.9347792,22.5170877],[113.9348618,22.5170678],[113.9345511,22.5171426]]]},"properties":{"building":"retail"}},{"type":"Feature","geometry":{"type":"Polygon","coordinates":[[[113.9359112,22.5206431],[113.9357221,22.5205105],[113.9356632,22.520525],[113.9356363,22.5205316],[113.9355943,22.5204149],[113.9354677,22.5200631],[113.9355482,22.5200385],[113.9354341,22.5197197],[113.9353635,22.5197413],[113.9354484,22.5199784],[113.9353381,22.5200088],[113.9351249,22.5194135],[113.9351533,22.5194048],[113.9351007,22.5192581],[113.9348231,22.5193429],[113.9348729,22.5194821],[113.9349061,22.519472],[113.9349556,22.5196103],[113.9347885,22.5196614],[113.9347053,22.5196851],[113.9348012,22.5199513],[113.934769,22.519961],[113.9348236,22.5201163],[113.9349462,22.5200786],[113.9350998,22.5201983],[113.9351749,22.5201785],[113.9354001,22.5208049],[113.9352242,22.5208562],[113.9351517,22.5206442],[113.935082,22.5206645],[113.9352543,22.5211687],[113.9353255,22.521148],[113.9352738,22.5209967],[113.9354519,22.5209447],[113.9354954,22.5210704],[113.9354742,22.5210763],[113.9355324,22.5212445],[113.9357854,22.5211698],[113.9357282,22.5210046],[113.9356938,22.5210143],[113.9356266,22.520817],[113.9358112,22.5207634],[113.9359112,22.5206431]]]},"properties":{"building":"train_station"}},{"type":"Feature","geometry":{"type":"Polygon","coordinates":[[[113.926996,22.5175147],[113.9269961,22.5175739],[113.9271724,22.5175738],[113.9271724,22.5175438],[113.9272148,22.5175437],[113.9272148,22.5175078],[113.9272432,22.5175078],[113.9272431,22.5173483],[113.9271663,22.5173484],[113.9271663,22.517357],[113.9271149,22.5173096],[113.9269445,22.5174672],[113.926996,22.5175147],[113.926996,22.5175147]]]},"properties":{"building":"apartments"}},{"type":"Feature","geometry":{"type":"Polygon","coordinates":[[[113.9259616,22.5174753],[113.9259583,22.5176028],[113.9262949,22.5176102],[113.9262982,22.5174828],[113.9259616,22.5174753],[113.9259616,22.5174753]]]},"properties":{"building":"yes"}},{"type":"Feature","geometry":{"type":"Polygon","coordinates":[[[113.9266663,22.5174479],[113.9266384,22.5174203],[113.9266506,22.5174098],[113.9266336,22.5173929],[113.9266602,22.51737],[113.9266275,22.5173376],[113.9264523,22.5174884],[113.9264747,22.5175105],[113.9264629,22.5175207],[113.926502,22.5175594],[113.926526,22.5175388],[113.9265432,22.5175559],[113.926598,22.5175087],[113.9266457,22.5175559],[113.9267138,22.5175582],[113.9267468,22.5175298],[113.9267809,22.5175636],[113.9267994,22.5175476],[113.9268218,22.5175698],[113.9268637,22.5175337],[113.9268527,22.5175227],[113.9268766,22.5175021],[113.9267134,22.5173403],[113.9266782,22.5173706],[113.926703,22.5173952],[113.9266848,22.5174109],[113.9266962,22.5174222],[113.9266663,22.5174479],[113.9266663,22.5174479]]]},"properties":{"building":"apartments"}},{"type":"Feature","geometry":{"type":"Polygon","coordinates":[[[113.924822,22.5173894],[113.9248457,22.5174131],[113.9248171,22.5174375],[113.9248388,22.5174592],[113.9247186,22.5175614],[113.924697,22.5175396],[113.9246684,22.517564],[113.9246447,22.5175402],[113.9245806,22.5175378],[113.9245879,22.517375],[113.9246203,22.5173763],[113.9246221,22.5173371],[113.9246609,22.5173386],[113.9246621,22.5173123],[113.9248346,22.5173189],[113.9248334,22.5173451],[113.9248723,22.5173466],[113.9248703,22.5173912],[113.924822,22.5173894],[113.924822,22.5173894]]]},"properties":{"building":"apartments"}},{"type":"Feature","geometry":{"type":"Polygon","coordinates":[[[113.9253885,22.5184361],[113.9253904,22.5183734],[113.9254836,22.5183759],[113.9254842,22.5183579],[113.9255069,22.5183585],[113.9255099,22.5182611],[113.9254872,22.5182605],[113.9254877,22.5182425],[113.9253944,22.5182401],[113.9253968,22.5181632],[113.9253773,22.5181627],[113.9253779,22.5181452],[113.9252621,22.5181422],[113.9252616,22.5181597],[113.9252422,22.5181592],[113.9252398,22.5182361],[113.9251466,22.5182337],[113.925146,22.5182516],[113.9251233,22.518251],[113.9251203,22.5183484],[113.925143,22.518349],[113.9251425,22.518367],[113.9252358,22.5183694],[113.9252338,22.5184321],[113.9253885,22.5184361],[113.9253885,22.5184361]]]},"properties":{"building":"apartments"}},{"type":"Feature","geometry":{"type":"Polygon","coordinates":[[[113.9237282,22.5191958],[113.9236978,22.5191847],[113.9236656,22.5191791],[113.9236329,22.5191792],[113.9236008,22.5191852],[113.9235705,22.5191967],[113.9235647,22.5192179],[113.9235604,22.5192274],[113.9235535,22.5192355],[113.9235444,22.5192416],[113.9235338,22.5192444],[113.9235032,22.5192542],[113.923481,22.5192759],[113.9234722,22.5193046],[113.9234787,22.5193338],[113.9234992,22.519357],[113.9235289,22.5193688],[113.9235685,22.5193739],[113.9235807,22.5193585],[113.9235976,22.5193475],[113.9236174,22.5193421],[113.9236381,22.5193428],[113.9236574,22.5193495],[113.9236734,22.5193615],[113.9236845,22.5193777],[113.923895,22.5193543],[113.9239015,22.5193362],[113.923914,22.519321],[113.9239311,22.5193102],[113.923951,22.519305],[113.9239716,22.519306],[113.9239909,22.5193129],[113.9240067,22.5193252],[113.9240439,22.5193116],[113.9240697,22.5192936],[113.9240836,22.5192666],[113.9240824,22.5192368],[113.9240665,22.5192108],[113.9240393,22.5191946],[113.9240071,22.5191918],[113.9239961,22.5191914],[113.9239858,22.5191875],[113.9239769,22.5191811],[113.9239703,22.5191728],[113.9239592,22.5191536],[113.9239269,22.519149],[113.9238941,22.5191502],[113.9238623,22.5191572],[113.9238324,22.5191697],[113.9238058,22.5191872],[113.923788,22.5191966],[113.9237683,22.5192013],[113.9237479,22.5192011],[113.9237282,22.5191958],[113.9237282,22.5191958]]]},"properties":{"building":"apartments"}},{"type":"Feature","geometry":{"type":"Polygon","coordinates":[[[113.9294914,22.5180729],[113.9297178,22.5180164],[113.9297243,22.5180387],[113.9298795,22.5180008],[113.9298306,22.5178167],[113.9294474,22.5179138],[113.9294914,22.5180729],[113.9294914,22.5180729]]]},"properties":{"building":"yes"}},{"type":"Feature","geometry":{"type":"Polygon","coordinates":[[[113.9266181,22.524077],[113.9266824,22.5241057],[113.9267475,22.5239812],[113.9269538,22.5240733],[113.9270105,22.5239649],[113.9268899,22.5239111],[113.9269433,22.5238091],[113.9268229,22.5237554],[113.9267728,22.5238511],[113.9266885,22.5238135],[113.926627,22.5239311],[113.9266816,22.5239555],[113.9266181,22.524077],[113.9266181,22.524077]]]},"properties":{"building":"yes"}},{"type":"Feature","geometry":{"type":"Polygon","coordinates":[[[113.9268881,22.5243418],[113.9269212,22.524286],[113.9270831,22.5243681],[113.9270325,22.524461],[113.9270969,22.5244953],[113.9270718,22.5245376],[113.9270108,22.5245068],[113.9269985,22.5245275],[113.9269233,22.5244894],[113.9268772,22.5245671],[113.9268451,22.5245508],[113.926817,22.5245982],[113.9267794,22.5245792],[113.926812,22.5245243],[113.9266963,22.5244656],[113.9267972,22.5242957],[113.9268881,22.5243418],[113.9268881,22.5243418]]]},"properties":{"building":"yes"}},{"type":"Feature","geometry":{"type":"Polygon","coordinates":[[[113.92729,22.5243877],[113.9275466,22.5243253],[113.9275236,22.5242411],[113.9274219,22.5242658],[113.9273789,22.5241012],[113.9272945,22.52412],[113.9273345,22.5242735],[113.9272643,22.5242891],[113.92729,22.5243877],[113.92729,22.5243877]]]},"properties":{"building":"yes"}},{"type":"Feature","geometry":{"type":"Polygon","coordinates":[[[113.9236702,22.522997],[113.9240288,22.5228765],[113.9241133,22.5230908],[113.9240932,22.5230976],[113.9241873,22.5233364],[113.9244418,22.5232509],[113.9243165,22.5229329],[113.9242644,22.5229504],[113.924211,22.522815],[113.9243498,22.5227684],[113.9241945,22.5223742],[113.9241592,22.5223861],[113.9241239,22.5223979],[113.924253,22.5227254],[113.9241826,22.522749],[113.9239649,22.5221964],[113.9240005,22.5221844],[113.9240081,22.5222038],[113.9240563,22.5221876],[113.9240503,22.5221724],[113.9241632,22.5221344],[113.9240616,22.5218763],[113.9241334,22.5218521],[113.9241058,22.5217822],[113.923962,22.5218306],[113.9240607,22.5220811],[113.9240284,22.522092],[113.923903,22.5217737],[113.9238339,22.5217969],[113.9239608,22.5221191],[113.9239325,22.5221286],[113.9236829,22.5214949],[113.9237576,22.5214698],[113.9237441,22.5214353],[113.9236722,22.5214595],[113.9236215,22.5213309],[113.9236522,22.5213206],[113.923624,22.5212491],[113.92359,22.5212605],[113.9234986,22.5210287],[113.9235243,22.52102],[113.9235067,22.5209756],[113.9234799,22.5209846],[113.9234301,22.5208582],[113.9234891,22.5208383],[113.9234733,22.5207981],[113.923492,22.5207918],[113.9234734,22.5207446],[113.923485,22.5207407],[113.92341,22.5205503],[113.9233809,22.5205601],[113.9233561,22.5204971],[113.9233684,22.520493],[113.9233581,22.5204667],[113.9233288,22.5204766],[113.9232265,22.5202169],[113.9231762,22.5202338],[113.9231569,22.5201847],[113.923207,22.5201679],[113.9232017,22.5201545],[113.9232167,22.5201495],[113.9231743,22.5200419],[113.9231558,22.5200481],[113.9231341,22.5199929],[113.92309,22.5200078],[113.9230676,22.5197534],[113.9230278,22.5196524],[113.9230703,22.5196381],[113.9234431,22.521438],[113.9232228,22.5215121],[113.9230597,22.5210981],[113.9230023,22.5211174],[113.9231881,22.5215889],[113.9234731,22.5214932],[113.9237455,22.5221847],[113.9234459,22.5222854],[113.9233265,22.5219823],[113.9232558,22.5220061],[113.9234049,22.5223847],[113.9236229,22.5223115],[113.923782,22.522258],[113.9240008,22.5228135],[113.9235762,22.5229543],[113.9237014,22.5233622],[113.9237388,22.5233524],[113.9237762,22.5233426],[113.9236702,22.522997],[113.9236702,22.522997]]]},"properties":{"building":"train_station"}},{"type":"Feature","geometry":{"type":"Polygon","coordinates":[[[113.9248234,22.5241812],[113.9247752,22.5239976],[113.9248704,22.5239771],[113.9248744,22.5239916],[113.9249206,22.5241572],[113.9248732,22.5241689],[113.9248234,22.5241812],[113.9248234,22.5241812]]]},"properties":{"building":"yes"}},{"type":"Feature","geometry":{"type":"Polygon","coordinates":[[[113.9253979,22.5244873],[113.9253832,22.5244279],[113.925482,22.5244038],[113.9254658,22.5243367],[113.9256033,22.5243056],[113.9256201,22.524373],[113.9254864,22.5244027],[113.9255023,22.5244634],[113.9253979,22.5244873],[113.9253979,22.5244873]]]},"properties":{"building":"yes"}},{"type":"Feature","geometry":{"type":"Polygon","coordinates":[[[113.9316974,22.5181195],[113.9317779,22.5181008],[113.9317822,22.5181165],[113.9318263,22.5181062],[113.9318106,22.518049],[113.9319042,22.5180271],[113.9319659,22.5182524],[113.9319441,22.5182575],[113.9319522,22.5182873],[113.9319975,22.5183147],[113.9320073,22.5183009],[113.932059,22.5183322],[113.9320522,22.5183418],[113.9320804,22.5183588],[113.9322121,22.5183278],[113.9322072,22.5183101],[113.932185,22.5183154],[113.932165,22.5182427],[113.9323277,22.5182044],[113.9323462,22.5182713],[113.9323155,22.5182785],[113.932322,22.518302],[113.9324151,22.5182801],[113.93242,22.5182981],[113.9325277,22.5182728],[113.9325183,22.5182388],[113.9324858,22.5182464],[113.9324646,22.5181695],[113.9326397,22.5181283],[113.932661,22.5182056],[113.9326309,22.5182127],[113.9326401,22.518246],[113.932815,22.5182049],[113.9328058,22.5181716],[113.9327634,22.5181816],[113.9327421,22.5181044],[113.9329266,22.518061],[113.9329479,22.5181385],[113.9329076,22.5181479],[113.9329167,22.5181807],[113.9330997,22.5181377],[113.9330906,22.5181049],[113.9330622,22.5181116],[113.9330408,22.5180342],[113.933205,22.5179956],[113.9332264,22.5180734],[113.9331981,22.51808],[113.933207,22.5181122],[113.933399,22.518067],[113.933394,22.5180487],[113.9333587,22.518057],[113.9333369,22.5179778],[113.9335134,22.5179362],[113.9335345,22.5180131],[113.9335063,22.5180197],[113.933512,22.5180405],[113.9336658,22.5180043],[113.9336864,22.5179719],[113.9336756,22.5179661],[113.9337059,22.5179185],[113.933718,22.517925],[113.9337359,22.5178968],[113.9337269,22.5178624],[113.9337039,22.5178676],[113.9336405,22.5176275],[113.9337358,22.517606],[113.9337548,22.517678],[113.9337772,22.517673],[113.9337671,22.5176348],[113.9338486,22.5176163],[113.9338916,22.5177783],[113.9338089,22.5177971],[113.9338003,22.5177646],[113.9337819,22.5177688],[113.9338044,22.5178524],[113.9338325,22.517846],[113.9338647,22.5179759],[113.9337833,22.517995],[113.9338054,22.5180778],[113.9320007,22.5184923],[113.9319803,22.518415],[113.9318761,22.5184389],[113.9318355,22.5182913],[113.9318723,22.5182828],[113.9318563,22.5182239],[113.9318163,22.5182331],[113.9318221,22.5182546],[113.9317395,22.5182739],[113.9316974,22.5181195],[113.9316974,22.5181195]]]},"properties":{"building":"apartments"}},{"type":"Feature","geometry":{"type":"Polygon","coordinates":[[[113.9287799,22.5232812],[113.9288896,22.5232665],[113.9288963,22.5233088],[113.9293073,22.5232537],[113.9293407,22.5234655],[113.9288199,22.5235355],[113.9287799,22.5232812],[113.9287799,22.5232812]]]},"properties":{"building":"yes"}},{"type":"Feature","geometry":{"type":"Polygon","coordinates":[[[113.9255115,22.5191505],[113.9254888,22.5191324],[113.9254722,22.5190637],[113.9255615,22.5190452],[113.9255419,22.5189644],[113.9254525,22.5189829],[113.9254568,22.5190004],[113.9254388,22.5190042],[113.9254217,22.5189341],[113.9253542,22.5189481],[113.9253713,22.5190182],[113.9252833,22.5190364],[113.9253153,22.5191683],[113.9254033,22.5191501],[113.9254122,22.5191868],[113.9253944,22.5192059],[113.9254318,22.5192357],[113.9255115,22.5191505],[113.9255115,22.5191505]]]},"properties":{"building":"apartments"}},{"type":"Feature","geometry":{"type":"Polygon","coordinates":[[[113.9249163,22.5205238],[113.9249495,22.5205566],[113.9249135,22.5205876],[113.9250027,22.5206758],[113.9250918,22.520599],[113.9250356,22.5205434],[113.9250938,22.5204932],[113.9250524,22.5204524],[113.9249921,22.5205044],[113.9249563,22.520469],[113.9250265,22.5204084],[113.9250095,22.5203916],[113.9250354,22.5203692],[113.9250033,22.5203374],[113.9249581,22.5203764],[113.9248828,22.5203541],[113.9248705,22.5202981],[113.9248244,22.5203067],[113.9248315,22.5203389],[113.9248069,22.5203435],[113.924826,22.5204305],[113.9247746,22.5204401],[113.9247582,22.5203653],[113.9246989,22.5203764],[113.9247147,22.5204484],[113.924634,22.5204635],[113.9246581,22.5205739],[113.9247863,22.5205499],[113.9247765,22.5205054],[113.9248241,22.5204965],[113.9249163,22.5205238],[113.9249163,22.5205238]]]},"properties":{"building":"apartments"}},{"type":"Feature","geometry":{"type":"Polygon","coordinates":[[[113.9343582,22.5240399],[113.9348035,22.5239941],[113.9348047,22.5240099],[113.935246,22.5239631],[113.9352442,22.5239441],[113.935407,22.5239309],[113.9354059,22.5238779],[113.9354265,22.5238775],[113.9354268,22.5239256],[113.9354131,22.5239257],[113.9354132,22.5239523],[113.935476,22.5239482],[113.9354412,22.5238559],[113.9354036,22.5238572],[113.9353453,22.523641],[113.9353837,22.5236292],[113.9351951,22.5231071],[113.9351292,22.5231307],[113.9351474,22.523174],[113.9351709,22.5232384],[113.9351823,22.5232954],[113.9351816,22.5233778],[113.9351749,22.5234428],[113.9351612,22.5234954],[113.935078,22.523471],[113.9350499,22.5235335],[113.9349141,22.5234679],[113.9349258,22.5234369],[113.9350137,22.5234422],[113.9350168,22.5234043],[113.9351069,22.5234106],[113.9351072,22.5233208],[113.9350965,22.5232687],[113.935077,22.5232198],[113.9350911,22.5232126],[113.9350832,22.5231961],[113.9349677,22.5232433],[113.9349639,22.5232325],[113.9348812,22.5232601],[113.9348866,22.5232703],[113.9348242,22.5232985],[113.9348343,22.5233233],[113.9348343,22.5233765],[113.9348175,22.5234248],[113.934801,22.523448],[113.9347938,22.5234433],[113.9348028,22.5234316],[113.9347686,22.5234118],[113.9347324,22.5234447],[113.9348155,22.5235549],[113.9347525,22.5235812],[113.934778,22.523768],[113.9347689,22.5237687],[113.934776,22.5238442],[113.9346837,22.5238527],[113.9346479,22.5235215],[113.9345761,22.5235283],[113.9345889,22.5236361],[113.9343924,22.523656],[113.9343797,22.5235493],[113.9343039,22.5235574],[113.9343549,22.5239142],[113.9343394,22.5239155],[113.9343582,22.5240399],[113.9343582,22.5240399]]]},"properties":{"building":"yes"}},{"type":"Feature","geometry":{"type":"Polygon","coordinates":[[[113.9336541,22.5240275],[113.9338392,22.5240288],[113.9342764,22.5239829],[113.9342684,22.5238987],[113.9337453,22.5239495],[113.9337225,22.5237252],[113.9339787,22.5237091],[113.933976,22.5236732],[113.9340548,22.5236691],[113.9340532,22.5236416],[113.9340768,22.5236412],[113.9340743,22.523556],[113.9341377,22.5235517],[113.9341222,22.5233573],[113.9339317,22.5233697],[113.9339478,22.5235729],[113.9339773,22.5235716],[113.9339828,22.5236246],[113.9336139,22.5236571],[113.9336541,22.5240275],[113.9336541,22.5240275]]]},"properties":{"building":"yes"}},{"type":"Feature","geometry":{"type":"Polygon","coordinates":[[[113.9320083,22.5233945],[113.9321735,22.5233833],[113.9321615,22.5232582],[113.9320837,22.5231566],[113.9319885,22.5230761],[113.9318597,22.5230129],[113.9318643,22.5229997],[113.9315432,22.5229056],[113.931534,22.5229599],[113.9315181,22.5229577],[113.9315129,22.5229953],[113.9315255,22.5229971],[113.9315209,22.523019],[113.9315354,22.5230228],[113.9315294,22.5230562],[113.9314494,22.5230439],[113.9313152,22.5230402],[113.9313151,22.5230349],[113.9313049,22.5230349],[113.9313049,22.52303],[113.931299,22.5230299],[113.9312993,22.5230101],[113.9313052,22.5230102],[113.9313054,22.5230001],[113.9313313,22.5230002],[113.9313313,22.522995],[113.9313431,22.522995],[113.9313429,22.5229811],[113.9313572,22.522981],[113.9313574,22.5229405],[113.9313457,22.5229409],[113.9313441,22.5228915],[113.9312173,22.5228983],[113.9311416,22.522912],[113.9311523,22.522959],[113.9311396,22.5229628],[113.931153,22.523001],[113.9311413,22.5230052],[113.9311638,22.5230591],[113.9311,22.5230798],[113.9311268,22.5231504],[113.9312455,22.5231269],[113.9313209,22.5231238],[113.9314527,22.5231306],[113.9315794,22.5231411],[113.9317149,22.5231988],[113.931843,22.5232489],[113.9319187,22.523314],[113.9319442,22.5233344],[113.9319547,22.5233305],[113.931959,22.5233406],[113.9320039,22.5233393],[113.9320083,22.5233945],[113.9320083,22.5233945]]]},"properties":{"building":"yes"}},{"type":"Feature","geometry":{"type":"Polygon","coordinates":[[[113.9266647,22.5193522],[113.9266688,22.5192907],[113.9267054,22.5192927],[113.9267104,22.5192191],[113.9265159,22.519208],[113.926511,22.5192816],[113.9265628,22.5192846],[113.9265587,22.5193462],[113.9265068,22.5193432],[113.9265026,22.519407],[113.926697,22.5194182],[113.9267013,22.5193543],[113.9266647,22.5193522],[113.9266647,22.5193522]]]},"properties":{"building":"apartments"}},{"type":"Feature","geometry":{"type":"Polygon","coordinates":[[[113.9272418,22.5187832],[113.9271752,22.5187867],[113.9271731,22.5187529],[113.9270933,22.5187571],[113.9271045,22.5189368],[113.9271842,22.5189326],[113.9271812,22.5188847],[113.9272479,22.5188811],[113.9272509,22.518929],[113.92732,22.5189254],[113.9273089,22.5187457],[113.9272397,22.5187493],[113.9272418,22.5187832],[113.9272418,22.5187832]]]},"properties":{"building":"apartments"}},{"type":"Feature","geometry":{"type":"Polygon","coordinates":[[[113.9272294,22.5185823],[113.9271628,22.5185858],[113.9271607,22.518552],[113.9270809,22.5185562],[113.9270921,22.5187359],[113.9271718,22.5187317],[113.9271688,22.5186838],[113.9272355,22.5186802],[113.9272385,22.5187281],[113.9273076,22.5187245],[113.9272965,22.5185448],[113.9272273,22.5185485],[113.9272294,22.5185823],[113.9272294,22.5185823]]]},"properties":{"building":"apartments"}},{"type":"Feature","geometry":{"type":"Polygon","coordinates":[[[113.9247612,22.519906],[113.9247944,22.5199388],[113.9247584,22.5199698],[113.9248476,22.520058],[113.9249367,22.5199812],[113.9248805,22.5199256],[113.9249387,22.5198754],[113.9248973,22.5198346],[113.924837,22.5198866],[113.9248012,22.5198512],[113.9248714,22.5197906],[113.9248543,22.5197737],[113.9248803,22.5197514],[113.9248482,22.5197196],[113.924803,22.5197586],[113.9247277,22.5197363],[113.9247154,22.5196803],[113.9246693,22.5196889],[113.9246764,22.5197211],[113.9246518,22.5197257],[113.9246709,22.5198127],[113.9246195,22.5198223],[113.9246031,22.5197475],[113.9245438,22.5197586],[113.9245596,22.5198306],[113.9244789,22.5198457],[113.924503,22.5199561],[113.9246311,22.5199321],[113.9246214,22.5198876],[113.924669,22.5198787],[113.9247612,22.519906],[113.9247612,22.519906]]]},"properties":{"building":"apartments"}},{"type":"Feature","geometry":{"type":"Polygon","coordinates":[[[113.9261107,22.5208159],[113.9261298,22.5208127],[113.9261229,22.5207777],[113.9261038,22.5207809],[113.9261019,22.5207717],[113.9259764,22.5207929],[113.9259783,22.5208021],[113.9259591,22.5208054],[113.925966,22.5208403],[113.9259852,22.5208371],[113.9259892,22.5208573],[113.9260012,22.5208553],[113.9260091,22.5208949],[113.9259787,22.5209001],[113.9259704,22.5208584],[113.9259241,22.5208662],[113.9259189,22.5208401],[113.925882,22.5208463],[113.9258921,22.5208974],[113.9258759,22.5209001],[113.9258977,22.5210102],[113.9259139,22.5210075],[113.925924,22.5210586],[113.925961,22.5210524],[113.9259558,22.5210262],[113.9260021,22.5210184],[113.9259958,22.5209866],[113.9260515,22.5209772],[113.9260292,22.5210071],[113.9261279,22.5210701],[113.9261507,22.5210395],[113.9261743,22.5210546],[113.9262498,22.5209535],[113.9262238,22.5209369],[113.9262335,22.5209239],[113.9261373,22.5208625],[113.9261127,22.5208954],[113.9261011,22.520837],[113.9261144,22.5208347],[113.9261107,22.5208159],[113.9261107,22.5208159]]]},"properties":{"building":"apartments"}},{"type":"Feature","geometry":{"type":"Polygon","coordinates":[[[113.9259144,22.5184462],[113.9259163,22.5183835],[113.9260096,22.5183859],[113.9260101,22.518368],[113.9260329,22.5183686],[113.9260358,22.5182712],[113.9260131,22.5182706],[113.9260136,22.5182526],[113.9259204,22.5182502],[113.9259227,22.5181733],[113.9259033,22.5181728],[113.9259038,22.5181553],[113.9257881,22.5181523],[113.9257875,22.5181698],[113.9257681,22.5181693],[113.9257658,22.5182462],[113.9256725,22.5182437],[113.925672,22.5182617],[113.9256492,22.5182611],[113.9256463,22.5183585],[113.925669,22.5183591],[113.9256684,22.5183771],[113.9257617,22.5183795],[113.9257598,22.5184421],[113.9259144,22.5184462],[113.9259144,22.5184462]]]},"properties":{"building":"apartments"}},{"type":"Feature","geometry":{"type":"Polygon","coordinates":[[[113.926428,22.518455],[113.9264299,22.5183924],[113.9265231,22.5183948],[113.9265237,22.5183768],[113.9265464,22.5183774],[113.9265494,22.51828],[113.9265266,22.5182794],[113.9265272,22.5182614],[113.9264339,22.518259],[113.9264363,22.5181821],[113.9264168,22.5181816],[113.9264174,22.5181641],[113.9263016,22.5181611],[113.9263011,22.5181786],[113.9262816,22.5181781],[113.9262793,22.518255],[113.926186,22.5182526],[113.9261855,22.5182705],[113.9261628,22.5182699],[113.9261598,22.5183674],[113.9261825,22.5183679],[113.926182,22.5183859],[113.9262752,22.5183883],[113.9262733,22.518451],[113.926428,22.518455],[113.926428,22.518455]]]},"properties":{"building":"apartments"}},{"type":"Feature","geometry":{"type":"Polygon","coordinates":[[[113.927314,22.5224961],[113.9273329,22.522492],[113.9273554,22.52258],[113.9274689,22.5225553],[113.9274828,22.5226095],[113.9276339,22.5225766],[113.9276201,22.5225225],[113.9276575,22.5225144],[113.9276619,22.5225318],[113.9276923,22.5225252],[113.9276435,22.5223339],[113.9276129,22.5223406],[113.9276174,22.5223581],[113.9275799,22.5223663],[113.9275612,22.5222929],[113.9273915,22.5223298],[113.9274102,22.5224032],[113.9272966,22.522428],[113.927314,22.5224961],[113.927314,22.5224961]]]},"properties":{"building":"apartments"}},{"type":"Feature","geometry":{"type":"Polygon","coordinates":[[[113.9268966,22.5225872],[113.9269155,22.5225831],[113.926938,22.5226713],[113.9270516,22.5226466],[113.9270654,22.5227009],[113.9272177,22.5226677],[113.9272038,22.5226135],[113.9273174,22.5225888],[113.9272949,22.5225003],[113.927314,22.5224961],[113.9272966,22.522428],[113.9271829,22.5224527],[113.9271643,22.5223797],[113.9269741,22.5224211],[113.9269928,22.5224943],[113.9268792,22.5225191],[113.9268966,22.5225872],[113.9268966,22.5225872]]]},"properties":{"building":"apartments"}},{"type":"Feature","geometry":{"type":"Polygon","coordinates":[[[113.926618,22.521829],[113.9265991,22.5218334],[113.9266045,22.5218533],[113.9265788,22.5218592],[113.9265863,22.5218869],[113.9266287,22.5218771],[113.9266202,22.521846],[113.9267101,22.5218251],[113.9267285,22.521893],[113.9267542,22.5219873],[113.9266644,22.5220082],[113.9266535,22.5219683],[113.9265926,22.5219825],[113.9266298,22.522003],[113.9265697,22.5220957],[113.926555,22.5220876],[113.9265388,22.5221127],[113.9264247,22.5220497],[113.9264394,22.522027],[113.9264049,22.5220079],[113.9264665,22.5219128],[113.9264926,22.5219272],[113.9264804,22.5218821],[113.9264689,22.5218848],[113.9264635,22.5218649],[113.9264446,22.5218693],[113.9264343,22.5218315],[113.9266077,22.5217912],[113.926618,22.521829],[113.926618,22.521829]]]},"properties":{"building":"apartments"}},{"type":"Feature","geometry":{"type":"Polygon","coordinates":[[[113.9271258,22.5217285],[113.9270127,22.5217548],[113.9269928,22.5216818],[113.9268034,22.5217258],[113.9268232,22.5217988],[113.9267101,22.5218251],[113.9267285,22.521893],[113.9267474,22.5218886],[113.9267713,22.5219765],[113.9268845,22.5219502],[113.9268992,22.5220042],[113.9270509,22.521969],[113.9270362,22.521915],[113.9271494,22.5218887],[113.9271255,22.5218008],[113.9271443,22.5217964],[113.9271258,22.5217285],[113.9271258,22.5217285]]]},"properties":{"building":"apartments"}},{"type":"Feature","geometry":{"type":"Polygon","coordinates":[[[113.9271443,22.5217964],[113.9271632,22.5217921],[113.9271871,22.5218799],[113.9273003,22.5218536],[113.927315,22.5219077],[113.9274656,22.5218727],[113.9274509,22.5218187],[113.9274881,22.5218101],[113.9274929,22.5218274],[113.9275231,22.5218204],[113.9274712,22.5216298],[113.9274407,22.5216369],[113.9274454,22.5216544],[113.9274081,22.5216631],[113.9273882,22.52159],[113.9272191,22.5216292],[113.927239,22.5217022],[113.9271258,22.5217285],[113.9271443,22.5217964],[113.9271443,22.5217964]]]},"properties":{"building":"apartments"}},{"type":"Feature","geometry":{"type":"Polygon","coordinates":[[[113.9268821,22.5193647],[113.9268862,22.5193031],[113.9269228,22.5193052],[113.9269277,22.5192316],[113.9267333,22.5192205],[113.9267283,22.5192941],[113.9267802,22.5192971],[113.9267761,22.5193587],[113.9267242,22.5193557],[113.9267199,22.5194195],[113.9269144,22.5194306],[113.9269187,22.5193668],[113.9268821,22.5193647],[113.9268821,22.5193647]]]},"properties":{"building":"apartments"}},{"type":"Feature","geometry":{"type":"Polygon","coordinates":[[[113.9269239,22.520914],[113.9268091,22.5209334],[113.9267944,22.5208593],[113.9266023,22.5208918],[113.9266169,22.5209658],[113.9265021,22.5209852],[113.9265158,22.5210541],[113.9265349,22.5210508],[113.9265526,22.52114],[113.9266673,22.5211206],[113.9266782,22.5211754],[113.9268321,22.5211494],[113.9268212,22.5210946],[113.926936,22.5210752],[113.9269184,22.5209861],[113.9269375,22.5209828],[113.9269239,22.520914],[113.9269239,22.520914]]]},"properties":{"building":"apartments"}},{"type":"Feature","geometry":{"type":"Polygon","coordinates":[[[113.9269375,22.5209828],[113.9269566,22.5209796],[113.9269743,22.5210687],[113.9270891,22.5210493],[113.9270999,22.5211041],[113.9272527,22.5210783],[113.9272418,22.5210236],[113.9272796,22.5210172],[113.9272831,22.5210348],[113.9273138,22.5210296],[113.9272755,22.5208363],[113.9272445,22.5208416],[113.927248,22.5208593],[113.9272102,22.5208657],[113.9271955,22.5207915],[113.927024,22.5208205],[113.9270387,22.5208946],[113.9269239,22.520914],[113.9269375,22.5209828],[113.9269375,22.5209828]]]},"properties":{"building":"apartments"}},{"type":"Feature","geometry":{"type":"Polygon","coordinates":[[[113.9260158,22.5199716],[113.9260352,22.519973],[113.9260276,22.5200633],[113.9261439,22.5200717],[113.9261392,22.5201273],[113.9262951,22.5201385],[113.9262999,22.520083],[113.9264162,22.5200914],[113.9264239,22.5200011],[113.9264432,22.5200025],[113.9264492,22.5199327],[113.9263328,22.5199243],[113.9263392,22.5198492],[113.9261445,22.5198351],[113.9261381,22.5199102],[113.9260217,22.5199017],[113.9260158,22.5199716],[113.9260158,22.5199716]]]},"properties":{"building":"apartments"}},{"type":"Feature","geometry":{"type":"Polygon","coordinates":[[[113.9268766,22.5199636],[113.9267602,22.5199552],[113.9267666,22.5198801],[113.9265719,22.5198661],[113.9265655,22.5199411],[113.9264492,22.5199327],[113.9264432,22.5200025],[113.9264626,22.5200039],[113.926455,22.5200942],[113.9265713,22.5201026],[113.9265666,22.5201582],[113.9267226,22.5201695],[113.9267273,22.5201139],[113.9268436,22.5201223],[113.9268513,22.520032],[113.9268707,22.5200334],[113.9268766,22.5199636],[113.9268766,22.5199636]]]},"properties":{"building":"apartments"}},{"type":"Feature","geometry":{"type":"Polygon","coordinates":[[[113.9268707,22.5200334],[113.9268901,22.5200348],[113.9268824,22.5201252],[113.9269987,22.5201336],[113.926994,22.5201891],[113.9271488,22.5202003],[113.9271535,22.5201448],[113.9271918,22.5201476],[113.9271903,22.5201655],[113.9272214,22.5201677],[113.927238,22.5199718],[113.9272066,22.5199695],[113.9272051,22.5199875],[113.9271667,22.5199847],[113.9271731,22.5199096],[113.9269993,22.519897],[113.9269929,22.5199721],[113.9268766,22.5199636],[113.9268707,22.5200334],[113.9268707,22.5200334]]]},"properties":{"building":"apartments"}},{"type":"Feature","geometry":{"type":"Polygon","coordinates":[[[113.9240596,22.5200041],[113.9240762,22.5199758],[113.9241613,22.5200182],[113.9241738,22.5199967],[113.9241938,22.5200067],[113.9242105,22.5199781],[113.9241556,22.5199507],[113.9241929,22.5198869],[113.9241452,22.5198631],[113.9241898,22.5197869],[113.9240462,22.5197154],[113.9240017,22.5197916],[113.9239541,22.5197678],[113.9239168,22.5198316],[113.9238619,22.5198042],[113.9238452,22.5198328],[113.9238651,22.5198428],[113.9238526,22.5198643],[113.9239377,22.5199067],[113.9239212,22.5199351],[113.9240596,22.5200041],[113.9240596,22.5200041]]]},"properties":{"building":"apartments"}},{"type":"Feature","geometry":{"type":"Polygon","coordinates":[[[113.9254318,22.5192357],[113.9254692,22.5192656],[113.9254871,22.5192465],[113.9255277,22.5192493],[113.9255209,22.5193323],[113.9256669,22.5193424],[113.9256736,22.5192594],[113.9257512,22.5192647],[113.9257564,22.519201],[113.9256788,22.5191956],[113.9256802,22.5191786],[113.9256995,22.51918],[113.9257064,22.5190956],[113.925617,22.5190894],[113.9256102,22.5191738],[113.9255342,22.5191685],[113.9255115,22.5191505],[113.9254318,22.5192357],[113.9254318,22.5192357]]]},"properties":{"building":"apartments"}},{"type":"Feature","geometry":{"type":"Polygon","coordinates":[[[113.926281,22.5192373],[113.9263586,22.5192427],[113.9263534,22.5193064],[113.9262758,22.519301],[113.9262691,22.5193841],[113.9261231,22.519374],[113.9261299,22.5192909],[113.9260523,22.5192856],[113.9260575,22.5192218],[113.926135,22.5192272],[113.9261364,22.5192102],[113.926117,22.5192089],[113.9261239,22.5191245],[113.9263086,22.5191373],[113.9263018,22.5192217],[113.9262824,22.5192203],[113.926281,22.5192373],[113.926281,22.5192373]]]},"properties":{"building":"apartments"}},{"type":"Feature","geometry":{"type":"Polygon","coordinates":[[[113.9258339,22.5192064],[113.9257564,22.519201],[113.9257512,22.5192647],[113.9258288,22.5192701],[113.925822,22.5193532],[113.925968,22.5193633],[113.9259747,22.5192802],[113.9260523,22.5192856],[113.9260575,22.5192218],[113.9259799,22.5192165],[113.9259813,22.5191995],[113.9260007,22.5192008],[113.9260075,22.5191164],[113.9258228,22.5191037],[113.9258159,22.519188],[113.9258353,22.5191894],[113.9258339,22.5192064],[113.9258339,22.5192064]]]},"properties":{"building":"apartments"}},{"type":"Feature","geometry":{"type":"Polygon","coordinates":[[[113.9311092,22.518714],[113.9309931,22.5183244],[113.9311682,22.5182628],[113.9311831,22.5182613],[113.9311985,22.5182628],[113.9312112,22.518268],[113.9312225,22.5182762],[113.9312339,22.5182911],[113.9312454,22.5183148],[113.9312639,22.5183528],[113.9312806,22.5183933],[113.9312966,22.5184364],[113.9313079,22.5184757],[113.9313175,22.5185171],[113.9313298,22.5185685],[113.9313365,22.5186088],[113.9313367,22.5186266],[113.9313338,22.5186446],[113.9313273,22.518655],[113.9313185,22.5186652],[113.9313063,22.5186732],[113.9312971,22.5186788],[113.9312827,22.5186836],[113.9311092,22.518714],[113.9311092,22.518714]]]},"properties":{"building":"commercial"}},{"type":"Feature","geometry":{"type":"Polygon","coordinates":[[[113.9350458,22.5230215],[113.9350107,22.5226632],[113.935168,22.5226448],[113.9351747,22.5227242],[113.9351275,22.5227297],[113.9351674,22.5230087],[113.9350458,22.5230215],[113.9350458,22.5230215]]]},"properties":{"building":"school"}}]}