{"type":"FeatureCollection","features":[{"type":"Feature","geometry":{"type":"Point","coordinates":[113.9332498,22.5206235]},"properties":{"pudo_id":"P1","option_type":"closest","label":"Closest Pickup","cn_label":"步行最近","osm_node_id":"13051155673","osm_name":"保利文化广场","osm_name_en":null,"osm_reference":"保利文化广场 bus stop near user","is_valid_pudo":"assumed_valid_for_demo","source_type":"OSM_reference_plus_manual_simulation","source_confidence":"medium_for_location_low_for_official_validity","legal_stopping_assumption":true,"vehicle_accessible_assumption":true,"within_service_area_assumption":true,"within_odd_assumption":true,"same_side_access":true,"crossing_count":0,"walking_distance_m":55,"rain_exposed_distance_m":50,"covered_distance_m":5,"vehicle_eta_min_simulated":5.5,"estimated_boarding_time_min_simulated":6.2,"shelter_score_simulated":0.2,"normal_convenience_score_simulated":0.72,"rain_comfort_score_simulated":0.47,"recommendation_reason":"Shortest walking distance, but limited shelter.","cn_recommendation_reason":"步行距离最短，但遮蔽有限。","important_disclaimer":"Simulated demo PUDO. Not official Robotaxi operational data.","poi_type":"pudo"}},{"type":"Feature","geometry":{"type":"Point","coordinates":[113.9318718,22.5201693]},"properties":{"pudo_id":"P2","option_type":"sheltered","label":"Sheltered Pickup","cn_label":"少淋雨","osm_node_id":"2613095870","osm_name":"海岸城","osm_name_en":"Coastal City","osm_reference":"海岸城 Coastal City sheltered bus platform","is_valid_pudo":"assumed_valid_for_demo","source_type":"OSM_reference_plus_manual_simulation","source_confidence":"medium_for_location_low_for_official_validity","legal_stopping_assumption":true,"vehicle_accessible_assumption":true,"within_service_area_assumption":true,"within_odd_assumption":true,"same_side_access":true,"crossing_count":0,"walking_distance_m":170,"rain_exposed_distance_m":45,"covered_distance_m":125,"vehicle_eta_min_simulated":6.5,"estimated_boarding_time_min_simulated":8.6,"shelter_score_simulated":0.85,"normal_convenience_score_simulated":0.5,"rain_comfort_score_simulated":0.84,"recommendation_reason":"More sheltered waiting area near commercial entrance / bus shelter; slightly longer walk.","cn_recommendation_reason":"靠近海岸城与有遮蔽公交站，步行略远但少淋雨。","important_disclaimer":"Simulated demo PUDO. Not official Robotaxi operational data.","poi_type":"pudo"}},{"type":"Feature","geometry":{"type":"Point","coordinates":[113.9349283,22.5201772]},"properties":{"pudo_id":"P3","option_type":"soonest","label":"Soonest Pickup","cn_label":"最快上车","osm_node_id":"11090778457","osm_name":null,"osm_name_en":null,"osm_reference":"后海地铁站 E2 / Houhai Metro Exit E2 area","is_valid_pudo":"assumed_valid_for_demo","source_type":"OSM_reference_plus_manual_simulation","source_confidence":"medium_for_location_low_for_official_validity","legal_stopping_assumption":true,"vehicle_accessible_assumption":true,"within_service_area_assumption":true,"within_odd_assumption":true,"same_side_access":true,"crossing_count":1,"walking_distance_m":160,"rain_exposed_distance_m":135,"covered_distance_m":25,"vehicle_eta_min_simulated":3.5,"estimated_boarding_time_min_simulated":5.5,"shelter_score_simulated":0.25,"normal_convenience_score_simulated":0.62,"rain_comfort_score_simulated":0.35,"recommendation_reason":"Earliest estimated boarding due to easier vehicle approach; more rain exposure.","cn_recommendation_reason":"车辆接近更快，预计更早上车，但雨中暴露更多。","important_disclaimer":"Simulated demo PUDO. Not official Robotaxi operational data.","poi_type":"pudo"}},{"type":"Feature","geometry":{"type":"Point","coordinates":[113.9305974,22.5225348]},"properties":{"pudo_id":"P4","option_type":"fallback","label":"Service-limited Candidate","cn_label":"服务受限候选","osm_node_id":"9204876360","osm_name":"滨海之窗南","osm_name_en":"Window of Binhai South","osm_reference":"滨海之窗南 sheltered bus platform","is_valid_pudo":"assumed_valid_for_demo","source_type":"OSM_reference_plus_manual_simulation","source_confidence":"medium_for_location_low_for_official_validity","legal_stopping_assumption":true,"vehicle_accessible_assumption":true,"within_service_area_assumption":true,"within_odd_assumption":true,"same_side_access":true,"crossing_count":1,"walking_distance_m":360,"rain_exposed_distance_m":120,"covered_distance_m":240,"vehicle_eta_min_simulated":8,"estimated_boarding_time_min_simulated":12.5,"shelter_score_simulated":0.75,"normal_convenience_score_simulated":0.13,"rain_comfort_score_simulated":0.65,"recommendation_reason":"Valid-looking sheltered point but farther from scenario; used as fallback candidate if nearby supply is limited.","cn_recommendation_reason":"较远的有遮蔽候选点，可作为服务受限时的备选。","important_disclaimer":"Simulated demo PUDO. Not official Robotaxi operational data.","poi_type":"pudo"}},{"type":"Feature","geometry":{"type":"Point","coordinates":[113.93345,22.52015]},"properties":{"id":"U1","label":"User current location","lat":22.52015,"lon":113.93345,"source":"manual_demo_annotation","notes":"Simulated user location near Coastal City / Poly Cultural Plaza area","poi_type":"user"}}]}