{"type":"FeatureCollection","features":[{"type":"Feature","geometry":{"type":"Polygon","coordinates":[[[113.9274961,22.5210998],[113.927317,22.5211294],[113.9262964,22.5213038],[113.9257889,22.5209914],[113.9261051,22.5222102],[113.9264158,22.5217905],[113.9274929,22.5215351],[113.9275761,22.5215152],[113.9274961,22.5210998],[113.9274961,22.5210998]]]},"properties":{"leisure":"park"}},{"type":"Feature","geometry":{"type":"Polygon","coordinates":[[[113.9261212,22.523508],[113.9263037,22.5242247],[113.9258766,22.5243216],[113.9260347,22.5248866],[113.9254256,22.5250266],[113.9253177,22.5250298],[113.9250934,22.5249695],[113.9249968,22.5249001],[113.9248778,22.5247945],[113.9248243,22.524681],[113.9248063,22.5246238],[113.9246341,22.5238556],[113.9249581,22.5237906],[113.9249248,22.5236327],[113.9259365,22.5233906],[113.9261212,22.523508],[113.9261212,22.523508]]]},"properties":{"leisure":"park"}},{"type":"Feature","geometry":{"type":"Polygon","coordinates":[[[113.9349192,22.5226314],[113.9348757,22.5222053],[113.9349117,22.5221517],[113.9355775,22.5220814],[113.9356549,22.5221471],[113.9357818,22.5225491],[113.9349192,22.5226314],[113.9349192,22.5226314]]]},"properties":{"leisure":"park"}},{"type":"Feature","geometry":{"type":"Polygon","coordinates":[[[113.9251094,22.5241614],[113.92516,22.5242167],[113.9252535,22.5242202],[113.9256164,22.524139],[113.925637,22.5242029],[113.9256669,22.5241787],[113.9257165,22.5241316],[113.9257642,22.5241025],[113.9257745,22.524053],[113.9257717,22.5239938],[113.925854,22.5239109],[113.9258297,22.523802],[113.9257062,22.523783],[113.9256688,22.5237484],[113.9255715,22.5237864],[113.9254462,22.5237726],[113.9253564,22.5238279],[113.9252647,22.5238763],[113.9252067,22.5238521],[113.9251431,22.523904],[113.9250758,22.5239644],[113.9250833,22.5240145],[113.9251169,22.5241027],[113.9251094,22.5241614],[113.9251094,22.5241614]]]},"properties":{"leisure":"grass"}},{"type":"Feature","geometry":{"type":"Polygon","coordinates":[[[113.9280757,22.5246823],[113.9296083,22.5245321],[113.9295206,22.5245164],[113.929413,22.5244899],[113.9293025,22.524461],[113.9291783,22.5244186],[113.9290534,22.5243575],[113.9289026,22.5242581],[113.9287674,22.5241287],[113.9287452,22.5241779],[113.9287208,22.524214],[113.9286656,22.524254],[113.9286108,22.5242688],[113.928559,22.5242729],[113.9285164,22.524263],[113.9284857,22.5242435],[113.9284248,22.5242042],[113.9284139,22.5242604],[113.9283949,22.5243233],[113.928363,22.5243961],[113.9283376,22.5244412],[113.9283041,22.5244863],[113.9282508,22.5245493],[113.9281896,22.5246023],[113.9280757,22.5246823],[113.9280757,22.5246823]]]},"properties":{"leisure":"grass"}},{"type":"Feature","geometry":{"type":"Polygon","coordinates":[[[113.9283344,22.5228058],[113.9282815,22.5226069],[113.9283781,22.5226676],[113.9284898,22.5226993],[113.9284087,22.5227322],[113.9283344,22.5228058],[113.9283344,22.5228058]]]},"properties":{"leisure":"grass"}}]}