{"type":"FeatureCollection","features":[{"type":"Feature","geometry":{"type":"LineString","coordinates":[[113.9331298,22.5205835],[113.9333698,22.520663499999998]]},"properties":{"option_type":"closest","label":"Closest Pickup","zone_type":"curb_pickup"}},{"type":"Feature","geometry":{"type":"LineString","coordinates":[[113.9317518,22.5201293],[113.93199179999999,22.520209299999998]]},"properties":{"option_type":"sheltered","label":"Sheltered Pickup","zone_type":"curb_pickup"}},{"type":"Feature","geometry":{"type":"LineString","coordinates":[[113.9348083,22.5201372],[113.93504829999999,22.520217199999998]]},"properties":{"option_type":"soonest","label":"Soonest Pickup","zone_type":"curb_pickup"}},{"type":"Feature","geometry":{"type":"LineString","coordinates":[[113.9304774,22.5224948],[113.93071739999999,22.522574799999997]]},"properties":{"option_type":"fallback","label":"Service-limited Candidate","zone_type":"curb_pickup"}}]}