{"type":"FeatureCollection","features":[{"type":"Feature","geometry":{"type":"LineString","coordinates":[[113.93345,22.52015],[113.9332498,22.5206235]]},"properties":{"route_id":"R1_P1","origin_id":"U1","total_distance_m_geometric":57,"estimated_walk_time_min":0.7,"pudo_id":"P1","covered_distance_m":5,"rain_exposed_distance_m":50,"crossing_count":0,"same_side":true,"route_confidence":"manual_demo","notes":"Manual demo route. Not computed from a production pedestrian router.","segment":"covered"}},{"type":"Feature","geometry":{"type":"LineString","coordinates":[[113.9332498,22.5206235]]},"properties":{"route_id":"R1_P1","origin_id":"U1","total_distance_m_geometric":57,"estimated_walk_time_min":0.7,"pudo_id":"P1","covered_distance_m":5,"rain_exposed_distance_m":50,"crossing_count":0,"same_side":true,"route_confidence":"manual_demo","notes":"Manual demo route. Not computed from a production pedestrian router.","segment":"exposed"}},{"type":"Feature","geometry":{"type":"LineString","coordinates":[[113.93345,22.52015],[113.9328,22.52012],[113.9318718,22.5201693]]},"properties":{"route_id":"R2_P2","origin_id":"U1","total_distance_m_geometric":162,"estimated_walk_time_min":2,"pudo_id":"P2","covered_distance_m":125,"rain_exposed_distance_m":45,"crossing_count":0,"same_side":true,"route_confidence":"manual_demo","notes":"Manual demo route. Not computed from a production pedestrian router.","segment":"covered"}},{"type":"Feature","geometry":{"type":"LineString","coordinates":[[113.9318718,22.5201693]]},"properties":{"route_id":"R2_P2","origin_id":"U1","total_distance_m_geometric":162,"estimated_walk_time_min":2,"pudo_id":"P2","covered_distance_m":125,"rain_exposed_distance_m":45,"crossing_count":0,"same_side":true,"route_confidence":"manual_demo","notes":"Manual demo route. Not computed from a production pedestrian router.","segment":"exposed"}},{"type":"Feature","geometry":{"type":"LineString","coordinates":[[113.93345,22.52015],[113.93415,22.52012]]},"properties":{"route_id":"R3_P3","origin_id":"U1","total_distance_m_geometric":152,"estimated_walk_time_min":1.9,"pudo_id":"P3","covered_distance_m":25,"rain_exposed_distance_m":135,"crossing_count":1,"same_side":false,"route_confidence":"manual_demo","notes":"Manual demo route. Not computed from a production pedestrian router.","segment":"covered"}},{"type":"Feature","geometry":{"type":"LineString","coordinates":[[113.93415,22.52012],[113.9349283,22.5201772]]},"properties":{"route_id":"R3_P3","origin_id":"U1","total_distance_m_geometric":152,"estimated_walk_time_min":1.9,"pudo_id":"P3","covered_distance_m":25,"rain_exposed_distance_m":135,"crossing_count":1,"same_side":false,"route_confidence":"manual_demo","notes":"Manual demo route. Not computed from a production pedestrian router.","segment":"exposed"}},{"type":"Feature","geometry":{"type":"LineString","coordinates":[[113.93345,22.52015],[113.9329,22.521],[113.931,22.5221]]},"properties":{"route_id":"R4_P4","origin_id":"U1","total_distance_m_geometric":404,"estimated_walk_time_min":5,"pudo_id":"P4","covered_distance_m":240,"rain_exposed_distance_m":120,"crossing_count":1,"same_side":false,"route_confidence":"manual_demo","notes":"Manual demo route. Not computed from a production pedestrian router.","segment":"covered"}},{"type":"Feature","geometry":{"type":"LineString","coordinates":[[113.931,22.5221],[113.9305974,22.5225348]]},"properties":{"route_id":"R4_P4","origin_id":"U1","total_distance_m_geometric":404,"estimated_walk_time_min":5,"pudo_id":"P4","covered_distance_m":240,"rain_exposed_distance_m":120,"crossing_count":1,"same_side":false,"route_confidence":"manual_demo","notes":"Manual demo route. Not computed from a production pedestrian router.","segment":"exposed"}}]}